phone,address,road_address,name,screen,region,screen_type
1544-1122,서울특별시 강동구 고덕동 353-23,"서울특별시 강동구 고덕비즈밸리로 51, 3,4층 (고덕동)",더스크린고덕강일,SCREENX관,서울,SCREENX
1544-1122,서울특별시 강동구 고덕동 353-23,"서울특별시 강동구 고덕비즈밸리로 51, 3,4층 (고덕동)",더스크린고덕강일,8관,서울,2D
1544-1122,서울특별시 강동구 고덕동 353-23,"서울특별시 강동구 고덕비즈밸리로 51, 3,4층 (고덕동)",더스크린고덕강일,2관,서울,2D
1544-1122,서울특별시 강동구 고덕동 353-23,"서울특별시 강동구 고덕비즈밸리로 51, 3,4층 (고덕동)",더스크린고덕강일,3관,서울,2D
1544-1122,서울특별시 강동구 고덕동 353-23,"서울특별시 강동구 고덕비즈밸리로 51, 3,4층 (고덕동)",더스크린고덕강일,4관,서울,2D
1544-1122,서울특별시 강동구 고덕동 353-23,"서울특별시 강동구 고덕비즈밸리로 51, 3,4층 (고덕동)",더스크린고덕강일,4DX관,서울,4DX
1544-1122,서울특별시 강동구 고덕동 353-23,"서울특별시 강동구 고덕비즈밸리로 51, 3,4층 (고덕동)",더스크린고덕강일,7관,서울,2D
1544-1122,서울특별시 강동구 고덕동 353-23,"서울특별시 강동구 고덕비즈밸리로 51, 3,4층 (고덕동)",더스크린고덕강일,5관,서울,2D
052-211-1117,울산광역시 중구 성남동 3-6,"울산광역시 중구 중앙길 145, 크레존 6층 (성남동)",더스크린 울산성남,7관,부산/대구/경상,2D
052-211-1117,울산광역시 중구 성남동 3-6,"울산광역시 중구 중앙길 145, 크레존 5층 (성남동)",더스크린 울산성남,6관,부산/대구/경상,2D
052-211-1117,울산광역시 중구 성남동 3-6,"울산광역시 중구 중앙길 145, 크레존 5층 (성남동)",더스크린 울산성남,5관,부산/대구/경상,2D
052-211-1117,울산광역시 중구 성남동 3-6,"울산광역시 중구 중앙길 145, 크레존 5층 (성남동)",더스크린 울산성남,4관,부산/대구/경상,2D
052-211-1117,울산광역시 중구 성남동 3-6,"울산광역시 중구 중앙길 145, 크레존 4층 (성남동)",더스크린 울산성남,3관,부산/대구/경상,2D
052-211-1117,울산광역시 중구 성남동 3-6,"울산광역시 중구 중앙길 145, 크레존 4층 (성남동)",더스크린 울산성남,2관,부산/대구/경상,2D
052-211-1117,울산광역시 중구 성남동 3-6,"울산광역시 중구 중앙길 145, 크레존 (성남동)",더스크린 울산성남,1관,부산/대구/경상,2D
,경기도 동두천시 생연동 364-1,경기도 동두천시 평화로 2346 (생연동),더스크린동두천,2관,경기,2D
,경기도 동두천시 생연동 364-1,경기도 동두천시 평화로 2346 (생연동),더스크린동두천,3관,경기,2D
,경기도 동두천시 생연동 364-1,경기도 동두천시 평화로 2346 (생연동),더스크린동두천,4관,경기,2D
,경기도 구리시 갈매동 552-4,"경기도 구리시 갈매순환로 180, 힐스테이트 갈매역 스칸센알토(B그룹) 문화 및 집회시설동 B1,B2층 (갈매동)",더스크린구리갈매,1관,경기,2D
,경기도 구리시 갈매동 552-4,"경기도 구리시 갈매순환로 180, 힐스테이트 갈매역 스칸센알토(B그룹) 문화 및 집회시설동 B1,B2층 (갈매동)",더스크린구리갈매,2관,경기,2D
,경기도 구리시 갈매동 552-4,"경기도 구리시 갈매순환로 180, 힐스테이트 갈매역 스칸센알토(B그룹) 문화 및 집회시설동 B1,B2층 (갈매동)",더스크린구리갈매,3관,경기,2D
,경기도 구리시 갈매동 552-4,"경기도 구리시 갈매순환로 180, 힐스테이트 갈매역 스칸센알토(B그룹) 문화 및 집회시설동 B1,B2층 (갈매동)",더스크린구리갈매,4관,경기,2D
,경기도 구리시 갈매동 552-4,"경기도 구리시 갈매순환로 180, 힐스테이트 갈매역 스칸센알토(B그룹) 문화 및 집회시설동 B1,B2층 (갈매동)",더스크린구리갈매,5관,경기,2D
,경기도 구리시 갈매동 552-4,"경기도 구리시 갈매순환로 180, 힐스테이트 갈매역 스칸센알토(B그룹) 문화 및 집회시설동 B1,B2층 (갈매동)",더스크린구리갈매,6관,경기,2D
,"경기도 화성시 송동 725-1 더샵 동탄센텀폴리스 1,2단지","경기도 화성시 동탄대로5길 9, 더샵 동탄센텀폴리스 1,2단지 5,6층 5064,5001,6001호 (송동)",더스크린 동탄그랑파사쥬,1관,경기,2D
,"경기도 화성시 송동 725-1 더샵 동탄센텀폴리스 1,2단지","경기도 화성시 동탄대로5길 9, 더샵 동탄센텀폴리스 1,2단지 5,6층 5064,5001,6001호 (송동)",더스크린 동탄그랑파사쥬,2관,경기,2D
,"경기도 화성시 송동 725-1 더샵 동탄센텀폴리스 1,2단지","경기도 화성시 동탄대로5길 9, 더샵 동탄센텀폴리스 1,2단지 5,6층 5064,5001,6001호 (송동)",더스크린 동탄그랑파사쥬,3관,경기,2D
,"경기도 화성시 송동 725-1 더샵 동탄센텀폴리스 1,2단지","경기도 화성시 동탄대로5길 9, 더샵 동탄센텀폴리스 1,2단지 5,6층 5064,5001,6001호 (송동)",더스크린 동탄그랑파사쥬,4관,경기,2D
,"경기도 화성시 송동 725-1 더샵 동탄센텀폴리스 1,2단지","경기도 화성시 동탄대로5길 9, 더샵 동탄센텀폴리스 1,2단지 5,6층 5064,5001,6001호 (송동)",더스크린 동탄그랑파사쥬,5관,경기,2D
,"경기도 화성시 송동 725-1 더샵 동탄센텀폴리스 1,2단지","경기도 화성시 동탄대로5길 9, 더샵 동탄센텀폴리스 1,2단지 5,6층 5064,5001,6001호 (송동)",더스크린 동탄그랑파사쥬,6관,경기,2D
,"경기도 화성시 송동 725-1 더샵 동탄센텀폴리스 1,2단지","경기도 화성시 동탄대로5길 9, 더샵 동탄센텀폴리스 1,2단지 5,6층 5064,5001,6001호 (송동)",더스크린 동탄 그랑파사쥬,7관,경기,2D
032-460-7285,인천광역시 서구 가정동 0 루원지웰시티푸르지오 상가동 지하1호,"인천광역시 서구 가정로 406, 상가동 지하1층 (가정동, 루원지웰시티푸르지오)",더스크린 인천가정,1관,인천,2D
032-460-7285,인천광역시 서구 가정동 0 루원지웰시티푸르지오 상가동 지하1호,"인천광역시 서구 가정로 406, 상가동 지하1층 (가정동, 루원지웰시티푸르지오)",더스크린 인천가정,2관,인천,2D
032-460-7285,인천광역시 서구 가정동 0 루원지웰시티푸르지오 상가동 지하1호,"인천광역시 서구 가정로 406, 상가동 지하1층 (가정동, 루원지웰시티푸르지오)",더스크린 인천가정,3관,인천,2D
032-460-7285,인천광역시 서구 가정동 0 루원지웰시티푸르지오 상가동 지하1호,"인천광역시 서구 가정로 406, 상가동 지하1층 (가정동, 루원지웰시티푸르지오)",더스크린 인천가정,4관,인천,2D
,경기도 남양주시 화도읍 녹촌리 46-23,"경기도 남양주시 화도읍 경춘로1876번길 40, 해동본타워",더스크린 남양주 화도,1관,경기,2D
,경기도 남양주시 화도읍 녹촌리 46-23,"경기도 남양주시 화도읍 경춘로1876번길 40, 2,3층",더스크린 남양주 화도,2관,경기,2D
,경기도 남양주시 화도읍 녹촌리 46-23,"경기도 남양주시 화도읍 경춘로1876번길 40, 2,3층",더스크린 남양주 화도,3관,경기,2D
,경기도 남양주시 화도읍 녹촌리 46-23,"경기도 남양주시 화도읍 경춘로1876번길 40, 2,3층",더스크린 남양주 화도,4관,경기,2D
,경기도 남양주시 화도읍 녹촌리 46-23,"경기도 남양주시 화도읍 경춘로1876번길 40, 2,3층",더스크린 남양주 화도,5관,경기,2D
,경기도 남양주시 화도읍 녹촌리 46-23,"경기도 남양주시 화도읍 경춘로1876번길 40, 2,3층",더스크린 남양주 화도,6관,경기,2D
,경기도 남양주시 화도읍 녹촌리 46-23,"경기도 남양주시 화도읍 경춘로1876번길 40, 2,3층",더스크린 남양주 화도,7관,경기,2D
,경기도 동두천시 생연동 364-1,"경기도 동두천시 평화로 2346, 6층 (생연동)",더스크린동두천,1관,경기,2D
053-211-3865,대구광역시 달서구 죽전동 273-27,"대구광역시 달서구 달구벌대로 1551, 골든타워 8~11층 (죽전동)",더스크린 대구죽전,1관,부산/대구/경상,2D
053-211-3865,대구광역시 달서구 죽전동 273-27,"대구광역시 달서구 달구벌대로 1551, 골든타워 8~11층 (죽전동)",더스크린 대구죽전,2관,부산/대구/경상,2D
053-211-3865,대구광역시 달서구 죽전동 273-27,"대구광역시 달서구 달구벌대로 1551, 골든타워 8~11층 (죽전동)",더스크린 대구죽전,3관,부산/대구/경상,2D
053-211-3865,대구광역시 달서구 죽전동 273-27,"대구광역시 달서구 달구벌대로 1551, 골든타워 8~11층 (죽전동)",더스크린 대구죽전,4관,부산/대구/경상,2D
053-211-3865,대구광역시 달서구 죽전동 273-27,"대구광역시 달서구 달구벌대로 1551, 골든타워 8~11층 (죽전동)",더스크린 대구죽전,5관,부산/대구/경상,2D
053-211-3865,대구광역시 달서구 죽전동 273-27,"대구광역시 달서구 달구벌대로 1551, 골든타워 8~11층 (죽전동)",더스크린 대구죽전,6관,부산/대구/경상,2D
053-211-3865,대구광역시 달서구 죽전동 273-27,"대구광역시 달서구 달구벌대로 1551, 골든타워 8~11층 (죽전동)",더스크린 대구죽전,7관,부산/대구/경상,2D
032-429-0116,인천광역시 미추홀구 주안동 0 포레나 미추홀,"인천광역시 미추홀구 경인로 372, 지하2층 B2200호 (주안동, 포레나 미추홀)",더스크린인천시민공원,3관,인천,2D
032-429-0116,인천광역시 미추홀구 주안동 0 포레나 미추홀,"인천광역시 미추홀구 경인로 372, 지하2층 B2200호 (주안동, 포레나 미추홀)",더스크린인천시민공원,2관,인천,2D
032-429-0116,인천광역시 미추홀구 주안동 0 포레나 미추홀,"인천광역시 미추홀구 경인로 372, 지하2층 B2200호 (주안동, 포레나 미추홀)",더스크린인천시민공원,1관,인천,2D
032-429-0116,인천광역시 미추홀구 주안동 0 포레나 미추홀,"인천광역시 미추홀구 경인로 372, 지하2층 B2200호 (주안동, 포레나 미추홀)",더스크린인천시민공원,5관,인천,2D
032-429-0116,인천광역시 미추홀구 주안동 0 포레나 미추홀,"인천광역시 미추홀구 경인로 372, 지하2층 B2200호 (주안동, 포레나 미추홀)",더스크린인천시민공원,4관,인천,2D
041-545-0080,충청남도 아산시 온천동 79-1,"충청남도 아산시 온천대로 1538, 6층 (온천동)",더스크린아산,1관,대전/충청/세종,2D
041-545-0080,충청남도 아산시 온천동 79-1,"충청남도 아산시 온천대로 1538, 6층 (온천동)",더스크린아산,2관,대전/충청/세종,2D
041-545-0080,충청남도 아산시 온천동 79-1,"충청남도 아산시 온천대로 1538, 6층 (온천동)",더스크린아산,3관,대전/충청/세종,2D
041-545-0080,충청남도 아산시 온천동 79-1,"충청남도 아산시 온천대로 1538, 6층 (온천동)",더스크린아산,4관,대전/충청/세종,2D
041-545-0080,충청남도 아산시 온천동 79-1,"충청남도 아산시 온천대로 1538, 6층 (온천동)",더스크린아산,5관,대전/충청/세종,2D
041-545-0080,충청남도 아산시 온천동 79-1,"충청남도 아산시 온천대로 1538, 6층 (온천동)",더스크린아산,6관,대전/충청/세종,2D
02-526-8859,서울특별시 도봉구 방학동 707-6,"서울특별시 도봉구 도봉로 684, 6~7층 (방학동)",더스크린 방학,4DX관,서울,4DX
02-526-8859,서울특별시 도봉구 방학동 707-6,"서울특별시 도봉구 도봉로 684, 6~7층 (방학동)",더스크린 방학,2관,서울,2D
02-526-8859,서울특별시 도봉구 방학동 707-6,"서울특별시 도봉구 도봉로 684, 4~5층 (방학동)",더스크린 방학,7관,서울,2D
02-526-8859,서울특별시 도봉구 방학동 707-6,"서울특별시 도봉구 도봉로 684, 6~7층 (방학동)",더스크린 방학,3관,서울,2D
02-526-8859,서울특별시 도봉구 방학동 707-6,"서울특별시 도봉구 도봉로 684, 4~5층 (방학동)",더스크린 방학,4관,서울,2D
02-526-8859,서울특별시 도봉구 방학동 707-6,"서울특별시 도봉구 도봉로 684, 4~5층 (방학동)",더스크린 방학,5관,서울,2D
02-526-8859,서울특별시 도봉구 방학동 707-6,"서울특별시 도봉구 도봉로 684, 4~5층 (방학동)",더스크린 방학,6관,서울,2D
,경기도 평택시 장당동 154 판매시설동 301호,"경기도 평택시 경기대로 945, 평택고덕아이파크 판매시설동 301호 (장당동)",더스크린평택고덕,1관,경기,2D
,경기도 평택시 장당동 154 판매시설동 301호,"경기도 평택시 경기대로 945, 평택고덕아이파크 판매시설동 301호 (장당동)",더스크린평택고덕,2관,경기,2D
,경기도 평택시 장당동 154 판매시설동 301호,"경기도 평택시 경기대로 945, 평택고덕아이파크 판매시설동 301호 (장당동)",더스크린평택고덕,3관,경기,2D
,경기도 평택시 장당동 154 판매시설동 301호,"경기도 평택시 경기대로 945, 평택고덕아이파크 판매시설동 301호 (장당동)",더스크린평택고덕,4관,경기,2D
,경기도 평택시 장당동 154 판매시설동 301호,"경기도 평택시 경기대로 945, 평택고덕아이파크 판매시설동 301호 (장당동)",더스크린평택고덕,5관,경기,2D
,경기도 평택시 장당동 154 판매시설동 301호,"경기도 평택시 경기대로 945, 평택고덕아이파크 판매시설동 301호 (장당동)",더스크린평택고덕,6관,경기,2D
,경기도 평택시 장당동 154 판매시설동 301호,"경기도 평택시 경기대로 945, 평택고덕아이파크 판매시설동 301호 (장당동)",더스크린평택고덕,7관,경기,2D
,경기도 평택시 장당동 154 판매시설동 301호,"경기도 평택시 경기대로 945, 평택고덕아이파크 판매시설동 301호 (장당동)",더스크린평택고덕,8관,경기,2D
051-990-7905,부산광역시 부산진구 부전동 521-1 KT&G 상상마당부산,"부산광역시 부산진구 서면로 39, KT&G 상상마당부산 8~12층 (부전동)",더스크린서면상상마당,6관,부산/대구/경상,2D
051-990-7905,부산광역시 부산진구 부전동 521-1 KT&G 상상마당부산,"부산광역시 부산진구 서면로 39, KT&G 상상마당부산 8~12층 (부전동)",더스크린서면상상마당,5관,부산/대구/경상,2D
051-990-7905,부산광역시 부산진구 부전동 521-1 KT&G 상상마당부산,"부산광역시 부산진구 서면로 39, KT&G 상상마당부산 8~12층 (부전동)",더스크린서면상상마당,4관,부산/대구/경상,2D
051-990-7905,부산광역시 부산진구 부전동 521-1 KT&G 상상마당부산,"부산광역시 부산진구 서면로 39, KT&G 상상마당부산 8~12층 (부전동)",더스크린서면상상마당,3관,부산/대구/경상,2D
051-990-7905,부산광역시 부산진구 부전동 521-1 KT&G 상상마당부산,"부산광역시 부산진구 서면로 39, KT&G 상상마당부산 8~12층 (부전동)",더스크린서면상상마당,2관,부산/대구/경상,2D
051-990-7905,부산광역시 부산진구 부전동 521-1 KT&G 상상마당부산,"부산광역시 부산진구 서면로 39, KT&G 상상마당부산 8~12층 (부전동)",더스크린서면상상마당,1관,부산/대구/경상,2D
0632726800,전북특별자치도 전주시 덕진구 송천동2가 1422 파인트리몰 5~6층,"전북특별자치도 전주시 덕진구 송천중앙로 225, 파인트리몰 5~6층 (송천동2가)",더스크린 전주에코시티,3관,광주/전라,2D
0632537300,전북특별자치도 전주시 덕진구 송천동2가 1329-1 로마네시티 현대썬앤빌 전주,"전북특별자치도 전주시 덕진구 세병2길 10, 로마네시티 현대썬앤빌 전주 4~8층 (송천동2가)",더스크린 전주에코시티,4관,광주/전라,2D
0632537300,전북특별자치도 전주시 덕진구 송천동2가 1329-1 로마네시티 현대썬앤빌 전주,"전북특별자치도 전주시 덕진구 세병2길 10, 로마네시티 현대썬앤빌 전주 4~8층 (송천동2가)",더스크린 전주에코시티,6관,광주/전라,2D
0632537300,전북특별자치도 전주시 덕진구 송천동2가 1329-1 로마네시티 현대썬앤빌 전주,"전북특별자치도 전주시 덕진구 세병2길 10, 로마네시티 현대썬앤빌 전주 4~8층 (송천동2가)",더스크린 전주에코시티,1관,광주/전라,2D
0632537300,전북특별자치도 전주시 덕진구 송천동2가 1329-1 로마네시티 현대썬앤빌 전주,"전북특별자치도 전주시 덕진구 세병2길 10, 로마네시티 현대썬앤빌 전주 4~8층 (송천동2가)",더스크린 전주에코시티,2관,광주/전라,2D
053-986-6200,대구광역시 북구 연경동 1078-2,"대구광역시 북구 동화천로 290, 5층 (연경동)",더스크린대구연경,1관,부산/대구/경상,2D
053-986-6200,대구광역시 북구 연경동 1078-2,"대구광역시 북구 동화천로 290, 4층 (연경동)",더스크린대구연경,2관,부산/대구/경상,2D
053-986-6200,대구광역시 북구 연경동 1078-2,"대구광역시 북구 동화천로 290, 5층 (연경동)",더스크린대구연경,3관,부산/대구/경상,2D
053-986-6200,대구광역시 북구 연경동 1078-2,"대구광역시 북구 동화천로 290, 5층 (연경동)",더스크린대구연경,4관,부산/대구/경상,2D
053-986-6200,대구광역시 북구 연경동 1078-2,"대구광역시 북구 동화천로 290, 5층 (연경동)",더스크린대구연경,5관,부산/대구/경상,2D
053-986-6200,대구광역시 북구 연경동 1078-2,"대구광역시 북구 동화천로 290, 5층 (연경동)",더스크린대구연경,6관,부산/대구/경상,2D
02-371-6660,서울특별시 마포구 동교동 167-2 LC TOWER,"서울특별시 마포구 양화로 186, LC TOWER 7~10층 (동교동)",더스크린연남,6관,서울,2D
02-526-8853,서울특별시 마포구 동교동 167-2 LC TOWER,"서울특별시 마포구 양화로 186, LC TOWER 7~10층 (동교동)",더스크린연남,5관,서울,2D
02-526-8853,서울특별시 마포구 동교동 167-2 LC TOWER,"서울특별시 마포구 양화로 186, LC TOWER 7~10층 (동교동)",더스크린연남,4관,서울,2D
02-526-8853,서울특별시 마포구 동교동 167-2 LC TOWER,"서울특별시 마포구 양화로 186, LC TOWER 7~10층 (동교동)",더스크린연남,3관,서울,Suite Cinema
02-526-8853,서울특별시 마포구 동교동 167-2 LC TOWER,"서울특별시 마포구 양화로 186, LC TOWER 7~10층 (동교동)",더스크린연남,2관,서울,2D    
02-526-8853,서울특별시 마포구 동교동 167-2 LC TOWER,"서울특별시 마포구 양화로 186, LC TOWER 7~10층 (동교동)",더스크린연남,1관,서울,4DX
032-866-1003,인천광역시 미추홀구 도화동 1011 더샵 인천스카이타워 1단지,"인천광역시 미추홀구 숙골로88번길 12, 지하 1층 (도화동, 더샵 인천스카이타워 1단지)",더스크린 인천도화점,1관,인천,2D
032-866-1003,인천광역시 미추홀구 도화동 1011 더샵 인천스카이타워 1단지,"인천광역시 미추홀구 숙골로88번길 12, 지하 1층 (도화동, 더샵 인천스카이타워 1단지)",더스크린 인천도화점,6관,인천,2D
032-866-1003,인천광역시 미추홀구 도화동 1011 더샵 인천스카이타워 1단지,"인천광역시 미추홀구 숙골로88번길 12, 지하 1층 (도화동, 더샵 인천스카이타워 1단지)",더스크린 인천도화점,5관,인천,2D
032-866-1003,인천광역시 미추홀구 도화동 1011 더샵 인천스카이타워 1단지,"인천광역시 미추홀구 숙골로88번길 12, 지하 1층 (도화동, 더샵 인천스카이타워 1단지)",더스크린 인천도화점,4관,인천,2D
032-866-1003,인천광역시 미추홀구 도화동 1011 더샵 인천스카이타워 1단지,"인천광역시 미추홀구 숙골로88번길 12, 지하 1층 (도화동, 더샵 인천스카이타워 1단지)",더스크린 인천도화점,3관,인천,2D
032-866-1003,인천광역시 미추홀구 도화동 1011 더샵 인천스카이타워 1단지,"인천광역시 미추홀구 숙골로88번길 12, 지하1층 (도화동, 더샵 인천스카이타워 1단지)",더스크린 인천도화점,2관,인천,2D
,충청북도 충주시 교현동 539-1,"충청북도 충주시 국원대로 107, 한스타워 5~8층 (교현동)",더스크린 충주교현,1관,대전/충청/세종,2D
,충청북도 충주시 교현동 539-1,"충청북도 충주시 국원대로 107, 한스타워 5~8층 (교현동)",더스크린 충주교현,2관,대전/충청/세종,2D
,충청북도 충주시 교현동 539-1,"충청북도 충주시 국원대로 107, 한스타워 5~8층 (교현동)",더스크린 충주교현,3관,대전/충청/세종,2D
,충청북도 충주시 교현동 539-1,"충청북도 충주시 국원대로 107, 한스타워 5~8층 (교현동)",더스크린 충주교현,4관,대전/충청/세종,2D
,충청북도 충주시 교현동 539-1,"충청북도 충주시 국원대로 107, 한스타워 5~8층 (교현동)",더스크린 충주교현,5관,대전/충청/세종,2D
,충청북도 충주시 교현동 539-1,"충청북도 충주시 국원대로 107, 한스타워 5~8층 (교현동)",더스크린 충주교현,6관,대전/충청/세종,2D
053-812-8970,경상북도 경산시 중방동 897,경상북도 경산시 대학로28길 6-5 (중방동),더스크린경산,1관,부산/대구/경상,2D
053-812-8970,경상북도 경산시 중방동 897,경상북도 경산시 대학로28길 6-5 (중방동),더스크린경산,2관,부산/대구/경상,2D
053-812-8970,경상북도 경산시 중방동 897,경상북도 경산시 대학로28길 6-5 (중방동),더스크린경산,3관,부산/대구/경상,2D
053-812-8970,경상북도 경산시 중방동 897,경상북도 경산시 대학로28길 6-5 (중방동),더스크린경산,4관,부산/대구/경상,2D
053-812-8970,경상북도 경산시 중방동 897,경상북도 경산시 대학로28길 6-5 (중방동),더스크린경산,5관,부산/대구/경상,2D
053-812-8970,경상북도 경산시 중방동 897,경상북도 경산시 대학로28길 6-5 (중방동),더스크린경산,6관,부산/대구/경상,2D
031-629-1937,경기도 김포시 풍무동 202-1,"경기도 김포시 풍무로 128, 5층 (풍무동)",더스크린김포,1관,경기,2D
031-629-1937,경기도 김포시 풍무동 202-1,"경기도 김포시 풍무로 128, 5층 (풍무동)",더스크린김포,2관,경기,2D
031-629-1937,경기도 김포시 풍무동 202-1,"경기도 김포시 풍무로 128, 5층 (풍무동)",더스크린김포,3관,경기,2D
031-629-1937,경기도 김포시 풍무동 202-1,"경기도 김포시 풍무로 128, 5층 (풍무동)",더스크린김포,4관,경기,2D
031-629-1937,경기도 김포시 풍무동 202-1,"경기도 김포시 풍무로 128, 5층 (풍무동)",더스크린김포,5관,경기,2D
031-629-1937,경기도 김포시 풍무동 202-1,"경기도 김포시 풍무로 128, 5층 (풍무동)",더스크린김포,6관,경기,2D
032-832-0510,인천광역시 연수구 송도동 8-21 송도타임스페이스,"인천광역시 연수구 하모니로 158, 송도타임스페이스 지하1, 2층 (송도동)",더스크린송도타임스페이스,1관,인천,2D
032-832-0510,인천광역시 연수구 송도동 8-21 송도타임스페이스,"인천광역시 연수구 하모니로 158, 송도타임스페이스 지하1, 2층 (송도동)",더스크린송도타임스페이스,2관,인천,2D
032-832-0510,인천광역시 연수구 송도동 8-21 송도타임스페이스,"인천광역시 연수구 하모니로 158, 송도타임스페이스 지하1, 2층 (송도동)",더스크린송도타임스페이스,3관,인천,2D
032-832-0510,인천광역시 연수구 송도동 8-21 송도타임스페이스,"인천광역시 연수구 하모니로 158, 송도타임스페이스 지하1, 2층 (송도동)",더스크린송도타임스페이스,4관,인천,2D
032-832-0510,인천광역시 연수구 송도동 8-21 송도타임스페이스,"인천광역시 연수구 하모니로 158, 송도타임스페이스 지하1, 2층 (송도동)",더스크린송도타임스페이스,5관,인천,2D
032-832-0510,인천광역시 연수구 송도동 8-21 송도타임스페이스,"인천광역시 연수구 하모니로 158, 송도타임스페이스 지하1, 2층 (송도동)",더스크린송도타임스페이스,6관,인천,2D
032-832-0510,인천광역시 연수구 송도동 8-21 송도타임스페이스,"인천광역시 연수구 하모니로 158, 송도타임스페이스 지하1, 2층 (송도동)",더스크린송도타임스페이스,7관,인천,2D
031-795-6344,경기도 하남시 망월동 1100 힐스테이트 미사역 그랑파사쥬(12-1BL),"경기도 하남시 미사강변동로 95, 힐스테이트 미사역 그랑파사쥬(12-1BL) 3074호 (망월동)",더스크린하남미사,1관,경기,2D
031-795-6344,경기도 하남시 망월동 1100 힐스테이트 미사역 그랑파사쥬(12-1BL),"경기도 하남시 미사강변동로 95, 힐스테이트 미사역 그랑파사쥬(12-1BL) 3074호 (망월동)",더스크린하남미사,2관,경기,2D
031-795-6344,경기도 하남시 망월동 1100 힐스테이트 미사역 그랑파사쥬(12-1BL),"경기도 하남시 미사강변동로 95, 힐스테이트 미사역 그랑파사쥬(12-1BL) 3074호 (망월동)",더스크린하남미사,3관,경기,2D
031-795-6344,경기도 하남시 망월동 1100 힐스테이트 미사역 그랑파사쥬(12-1BL),"경기도 하남시 미사강변동로 95, 힐스테이트 미사역 그랑파사쥬(12-1BL) 3074호 (망월동)",더스크린하남미사,4관,경기,2D
031-795-6344,경기도 하남시 망월동 1100 힐스테이트 미사역 그랑파사쥬(12-1BL),"경기도 하남시 미사강변동로 95, 힐스테이트 미사역 그랑파사쥬(12-1BL) 3074호 (망월동)",더스크린하남미사,5관,경기,2D
031-795-6344,경기도 하남시 망월동 1100 힐스테이트 미사역 그랑파사쥬(12-1BL),"경기도 하남시 미사강변동로 95, 힐스테이트 미사역 그랑파사쥬(12-1BL) 3074호 (망월동)",더스크린하남미사,6관,경기,2D
031-795-6344,경기도 하남시 망월동 1100 힐스테이트 미사역 그랑파사쥬(12-1BL),"경기도 하남시 미사강변동로 95, 힐스테이트 미사역 그랑파사쥬(12-1BL) 3074호 (망월동)",더스크린하남미사,7관,경기,2D
055-911-1480,경상남도 창원시 성산구 상남동 77-4,"경상남도 창원시 성산구 중앙대로100번길 13, 창원 엠포리움 5,6층 (상남동)",더스크린 창원상남,1관,부산/대구/경상,2D
055-911-1480,경상남도 창원시 성산구 상남동 77-4,"경상남도 창원시 성산구 중앙대로100번길 13, 창원 엠포리움 5,6층 (상남동)",더스크린 창원상남,2관,부산/대구/경상,2D
055-911-1480,경상남도 창원시 성산구 상남동 77-4,"경상남도 창원시 성산구 중앙대로100번길 13, 창원 엠포리움 5,6층 (상남동)",더스크린 창원상남,3관,부산/대구/경상,2D
055-911-1480,경상남도 창원시 성산구 상남동 77-4,"경상남도 창원시 성산구 중앙대로100번길 13, 창원 엠포리움 5,6층 (상남동)",더스크린 창원상남,4관,부산/대구/경상,2D
055-911-1480,경상남도 창원시 성산구 상남동 77-4,"경상남도 창원시 성산구 중앙대로100번길 13, 창원 엠포리움 5,6층 (상남동)",더스크린 창원상남,5관,부산/대구/경상,2D
041-901-1543,충청남도 논산시 내동 452,"충청남도 논산시 시민로 181, CGV타워 4층 (내동)",더스크린논산,1관,대전/충청/세종,2D
041-901-1543,충청남도 논산시 내동 452,"충청남도 논산시 시민로 181, CGV타워 4층 (내동)",더스크린논산,2관,대전/충청/세종,2D
041-901-1543,충청남도 논산시 내동 452,"충청남도 논산시 시민로 181, CGV타워 4층 (내동)",더스크린논산,3관,대전/충청/세종,2D
041-901-1543,충청남도 논산시 내동 452,"충청남도 논산시 시민로 181, CGV타워 4층 (내동)",더스크린논산,4관,대전/충청/세종,2D
041-901-1543,충청남도 논산시 내동 452,"충청남도 논산시 시민로 181, CGV타워 4층 (내동)",더스크린논산,5관,대전/충청/세종,2D
055-753-3838,경상남도 진주시 충무공동 225-1,"경상남도 진주시 에나로127번길 30, 어반스퀘어 4,5층 (충무공동)",더스크린 진주혁신,1관,부산/대구/경상,2D
055-753-3838,경상남도 진주시 충무공동 225-1,"경상남도 진주시 에나로127번길 30, 어반스퀘어 4,5층 (충무공동)",더스크린 진주혁신,2관,부산/대구/경상,2D
055-753-3838,경상남도 진주시 충무공동 225-1,"경상남도 진주시 에나로127번길 30, 어반스퀘어 4,5층 (충무공동)",더스크린 진주혁신,3관,부산/대구/경상,2D
055-753-3838,경상남도 진주시 충무공동 225-1,"경상남도 진주시 에나로127번길 30, 어반스퀘어 4,5층 (충무공동)",더스크린 진주혁신,5관,부산/대구/경상,2D
055-753-3838,경상남도 진주시 충무공동 225-1,"경상남도 진주시 에나로127번길 30, 어반스퀘어 4,5층 (충무공동)",더스크린 진주혁신,6관,부산/대구/경상,2D
055-753-3838,경상남도 진주시 충무공동 225-1,"경상남도 진주시 에나로127번길 30, 어반스퀘어 4,5층 (충무공동)",더스크린 진주혁신,7관,부산/대구/경상,2D
055-753-3838,경상남도 진주시 충무공동 225-1,"경상남도 진주시 에나로127번길 30, 어반스퀘어 4,5층 (충무공동)",더스크린 진주혁신,4관,부산/대구/경상,2D
055-670-2202,경상남도 고성군 고성읍 서외리 77-1 고성군 작은영화관,"경상남도 고성군 고성읍 송학로 58, 고성군 작은영화관",더스크린고성,1관,부산/대구/경상,2D
055-670-2202,경상남도 고성군 고성읍 서외리 77-1 고성군 작은영화관,"경상남도 고성군 고성읍 송학로 58, 고성군 작은영화관",더스크린고성,2관,부산/대구/경상,2D
031-949-3636,경기도 파주시 야당동 1066,"경기도 파주시 경의로 1074, 601호 (야당동)",더스크린 파주야당,1관,경기,2D
031-949-3636,경기도 파주시 야당동 1066,"경기도 파주시 경의로 1074, 601호 (야당동)",더스크린 파주야당,2관,경기,2D
031-949-3636,경기도 파주시 야당동 1066,"경기도 파주시 경의로 1074, 601호 (야당동)",더스크린 파주야당,3관,경기,2D
031-949-3636,경기도 파주시 야당동 1066,"경기도 파주시 경의로 1074, 601호 (야당동)",더스크린 파주야당,4관,경기,2D
031-949-3636,경기도 파주시 야당동 1066,"경기도 파주시 경의로 1074, 601호 (야당동)",더스크린 파주야당,5관,경기,2D
032-460-7270,인천광역시 미추홀구 학익동 401-21,"인천광역시 미추홀구 매소홀로 255, 8층 (학익동)",더스크린 인천학익점,1관,인천,2D
032-460-7270,인천광역시 미추홀구 학익동 401-21,"인천광역시 미추홀구 매소홀로 255, 8층 (학익동)",더스크린 인천학익점,2관,인천,2D
032-460-7270,인천광역시 미추홀구 학익동 401-21,"인천광역시 미추홀구 매소홀로 255, 8층 (학익동)",더스크린 인천학익점,3관,인천,2D
032-460-7270,인천광역시 미추홀구 학익동 401-21,"인천광역시 미추홀구 매소홀로 255, 8층 (학익동)",더스크린 인천학익점,4관,인천,2D
032-460-7270,인천광역시 미추홀구 학익동 401-21,"인천광역시 미추홀구 매소홀로 255, 8층 (학익동)",더스크린 인천학익점,5관,인천,2D
032-460-7270,인천광역시 미추홀구 학익동 401-21,"인천광역시 미추홀구 매소홀로 255, 8층 (학익동)",더스크린 인천학익점,6관,인천,2D
031-544-9225,경기도 포천시 소흘읍 송우리 110-3,"경기도 포천시 소흘읍 호국로 689, 4,5층",더스크린포천,2관,경기,2D
031-544-9225,경기도 포천시 소흘읍 송우리 110-3,"경기도 포천시 소흘읍 호국로 689, 4,5층",더스크린포천,3관,경기,2D
031-544-9225,경기도 포천시 소흘읍 송우리 110-3,"경기도 포천시 소흘읍 호국로 689, 4,5층",더스크린포천,5관,경기,2D
031-544-9225,경기도 포천시 소흘읍 송우리 110-3,"경기도 포천시 소흘읍 호국로 689, 4,5층",더스크린포천,4관,경기,2D
,경기도 포천시 소흘읍 송우리 110-3,"경기도 포천시 소흘읍 호국로 689, 4,5층",더스크린포천,1관,경기,2D
02-371-6800,경기도 양주시 옥정동 963-12,"경기도 양주시 옥정로 200, 7,8층 (옥정동)",더스크린 양주옥정,6관,경기,2D
02-371-6800,경기도 양주시 옥정동 963-12,"경기도 양주시 옥정로 200, 7,8층 (옥정동)",더스크린 양주옥정,7관,경기,2D
02-371-6800,경기도 양주시 옥정동 963-12,"경기도 양주시 옥정로 200, 7,8층 (옥정동)",더스크린 양주옥정,1관,경기,2D
02-371-6800,경기도 양주시 옥정동 963-12,"경기도 양주시 옥정로 200, 7,8층 (옥정동)",더스크린 양주옥정,2관,경기,2D
02-371-6800,경기도 양주시 옥정동 963-12,"경기도 양주시 옥정로 200, 7,8층 (옥정동)",더스크린 양주옥정,3관,경기,2D
02-371-6800,경기도 양주시 옥정동 963-12,"경기도 양주시 옥정로 200, 7,8층 (옥정동)",더스크린 양주옥정,4관,경기,2D
02-371-6800,경기도 양주시 옥정동 963-12,"경기도 양주시 옥정로 200, 7,8층 (옥정동)",더스크린 양주옥정,5관,경기,2D
031-0895-4813,경기도 수원시 영통구 하동 1017-2 갤러리아 광교,"경기도 수원시 영통구 광교중앙로 124, 갤러리아 광교 10층 (하동)",더스크린광교,1관,경기,2D
031-0895-4813,경기도 수원시 영통구 하동 1017-2 갤러리아 광교,"경기도 수원시 영통구 광교중앙로 124, 갤러리아 광교 10층 (하동)",더스크린광교,3관,경기,2D
031-0895-4813,경기도 수원시 영통구 하동 1017-2 갤러리아 광교,"경기도 수원시 영통구 광교중앙로 124, 갤러리아 광교 10층 (하동)",더스크린광교,6관,경기,2D
031-0895-4813,경기도 수원시 영통구 하동 1017-2 갤러리아 광교,"경기도 수원시 영통구 광교중앙로 124, 갤러리아 광교 10층 (하동)",더스크린광교,5관,경기,2D
031-0895-4813,경기도 수원시 영통구 하동 1017-2 갤러리아 광교,"경기도 수원시 영통구 광교중앙로 124, 갤러리아 광교 10층 (하동)",더스크린광교,4관,경기,2D
031-0895-4813,경기도 수원시 영통구 하동 1017-2 갤러리아 광교,"경기도 수원시 영통구 광교중앙로 124, 갤러리아 광교 10층 (하동)",더스크린광교,2관,경기,2D
055-336-9333,경상남도 김해시 율하동 1347-2번지,경상남도 김해시 율하2로 111 (율하동),더스크린김해율하,1관,부산/대구/경상,2D
055-336-9333,경상남도 김해시 율하동 1347-2번지,경상남도 김해시 율하2로 111 (율하동),더스크린김해율하,2관,부산/대구/경상,2D
055-336-9333,경상남도 김해시 율하동 1347-2번지,경상남도 김해시 율하2로 111 (율하동),더스크린김해율하제,3관,부산/대구/경상,2D
055-336-9333,경상남도 김해시 율하동 1347-2번지,경상남도 김해시 율하2로 111 (율하동),더스크린김해율하,4관,부산/대구/경상,2D
031-377-3954,경기도 화성시 송동 694,"경기도 화성시 동탄대로 181, 레이크꼬모 B2층 (송동)",더스크린 동탄호수공원,2관,경기,2D
031-377-3954,경기도 화성시 송동 694,"경기도 화성시 동탄대로 181, 레이크꼬모 B2층 (송동)",더스크린 동탄호수공원,3관,경기,2D
031-377-3954,경기도 화성시 송동 694,"경기도 화성시 동탄대로 181, 레이크꼬모 B2층 (송동)",더스크린 동탄호수공원,4관,경기,2D
031-377-3954,경기도 화성시 송동 694,"경기도 화성시 동탄대로 181, 레이크꼬모 B2층 (송동)",더스크린 동탄호수공원,5관,경기,2D
031-377-3954,경기도 화성시 송동 694,"경기도 화성시 동탄대로 181, 레이크꼬모 B2층 (송동)",더스크린 동탄호수공원,6관,경기,2D
031-377-3954,경기도 화성시 송동 694,"경기도 화성시 동탄대로 181, 레이크꼬모 B2층 (송동)",더스크린 동탄호수공원,1관,경기,2D
055-387-7780,경상남도 양산시 삼호동 1010-3번지,"경상남도 양산시 삼호1길 42, 5,6층 (삼호동)",더스크린 양산삼호점,1관,부산/대구/경상,2D
055-387-7780,경상남도 양산시 삼호동 1010-3번지,"경상남도 양산시 삼호1길 42, 5,6층 (삼호동)",더스크린 양산삼호점,2관,부산/대구/경상,2D
055-387-7780,경상남도 양산시 삼호동 1010-3번지,"경상남도 양산시 삼호1길 42, 5,6층 (삼호동)",더스크린 양산삼호점,3관,부산/대구/경상,2D
052-294-9271,울산광역시 북구 신천동 51 신천CGV LEEPLEX,"울산광역시 북구 매산1로 17, 신천CGV LEEPLEX 5,6층 (신천동)",더스크린울산신천,1관,부산/대구/경상,2D
,울산광역시 북구 신천동 51 신천CGV LEEPLEX,"울산광역시 북구 매산1로 17, 신천CGV LEEPLEX 5,6층 (신천동)",더스크린울산신천,2관,부산/대구/경상,2D
,울산광역시 북구 신천동 51 신천CGV LEEPLEX,"울산광역시 북구 매산1로 17, 신천CGV LEEPLEX 5,6층 (신천동)",더스크린울산신천,3관,부산/대구/경상,2D
,울산광역시 북구 신천동 51 신천CGV LEEPLEX,"울산광역시 북구 매산1로 17, 신천CGV LEEPLEX 5,6층 (신천동)",더스크린울산신천,4관,부산/대구/경상,2D
070-4801-3967,경기도 오산시 원동 335-10,"경기도 오산시 원동로 22, 르마레시티 3~4층 (원동)",더스크린(오산중앙),6관,경기,2D
070-4801-3967,경기도 오산시 원동 335-10,"경기도 오산시 원동로 22, 르마레시티 3~4층 (원동)",더스크린(오산중앙),1관,경기,2D
070-4801-3967,경기도 오산시 원동 335-10,"경기도 오산시 원동로 22, 르마레시티 3~4층 (원동)",더스크린(오산중앙),2관,경기,2D
070-4801-3967,경기도 오산시 원동 335-10,"경기도 오산시 원동로 22, 르마레시티 3~4층 (원동)",더스크린(오산중앙),3관,경기,2D
070-4801-3967,경기도 오산시 원동 335-10,"경기도 오산시 원동로 22, 르마레시티 3~4층 (원동)",더스크린(오산중앙),4관,경기,2D
070-4801-3967,경기도 오산시 원동 335-10,"경기도 오산시 원동로 22, 르마레시티 3~4층 (원동)",더스크린(오산중앙),5관,경기,2D
070-4801-3967,경기도 오산시 원동 335-10,"경기도 오산시 원동로 22, 르마레시티 3~4층 (원동)",더스크린(오산중앙),7관,경기,2D
070-4801-3967,경기도 오산시 원동 335-10,"경기도 오산시 원동로 22, 르마레시티 3~4층 (원동)",더스크린(오산중앙),8관,경기,2D
02-3415-6781,서울특별시 성북구 동선동1가 1-2 유타,"서울특별시 성북구 동소문로 106, 유타 10층 (동선동1가)",더스크린 성신여대입구,1관,서울,2D
02-3415-6781,서울특별시 성북구 동선동1가 1-2 유타,"서울특별시 성북구 동소문로 106, 유타 12층 (동선동1가)",더스크린 성신여대입구,4관,서울,2D
02-3415-6781,서울특별시 성북구 동선동1가 1-2 유타몰 12층,"서울특별시 성북구 동소문로 106, 유타 12층 (동선동1가)",더스크린 성신여대입구,5관,서울,2D
042-545-0038,대전광역시 서구 도안동 1774 KD U PLAZA,"대전광역시 서구 도안동로11번길 45, KD U PLAZA 6층 (도안동)",더스크린 가수원점,1관,대전/충청/세종,2D
042-545-0038,대전광역시 서구 도안동 1774 KD U PLAZA,"대전광역시 서구 도안동로11번길 45, KD U PLAZA 6층 (도안동)",더스크린 가수원점,2관,대전/충청/세종,2D
042-545-0038,대전광역시 서구 도안동 1774 KD U PLAZA,"대전광역시 서구 도안동로11번길 45, KD U PLAZA 6층 (도안동)",더스크린 가수원점,3관,대전/충청/세종,2D
042-545-0038,대전광역시 서구 도안동 1774 KD U PLAZA,"대전광역시 서구 도안동로11번길 45, KD U PLAZA 6층 (도안동)",더스크린 가수원점,4관,대전/충청/세종,2D
042-545-0038,대전광역시 서구 도안동 1774 KD U PLAZA,"대전광역시 서구 도안동로11번길 45, KD U PLAZA 6층 (도안동)",더스크린 가수원점,5관,대전/충청/세종,2D
0312165031,경기도 화성시 봉담읍 동화리 564,"경기도 화성시 봉담읍 동화길 51, 원희캐슬봉담 221호",더스크린화성봉담,1관,경기,2D
0312165031,경기도 화성시 봉담읍 동화리 564,"경기도 화성시 봉담읍 동화길 51, 원희캐슬봉담 221호",더스크린화성봉담,2관,경기,2D
0312165031,경기도 화성시 봉담읍 동화리 564,"경기도 화성시 봉담읍 동화길 51, 원희캐슬봉담 221호",더스크린화성봉담,3관,경기,2D
0312165031,경기도 화성시 봉담읍 동화리 564,"경기도 화성시 봉담읍 동화길 51, 원희캐슬봉담 221호",더스크린화성봉담,4관,경기,2D
062-410-7173,광주광역시 동구 불로동 1-21,광주광역시 동구 중앙로160번길 16-7 (불로동),더스크린광주금남로,7관,광주/전라,2D
062-410-7173,광주광역시 동구 불로동 1-21,광주광역시 동구 중앙로160번길 16-7 (불로동),더스크린광주금남로,6관,광주/전라,2D
062-4107173,광주광역시 동구 불로동 1-21,광주광역시 동구 중앙로160번길 16-7 (불로동),더스크린광주금남로,5관,광주/전라,2D
062-4107173,광주광역시 동구 불로동 1-21,광주광역시 동구 중앙로160번길 16-7 (불로동),더스크린광주금남로,4관,광주/전라,2D
062-410-7173,광주광역시 동구 불로동 1-21,광주광역시 동구 중앙로160번길 16-7 (불로동),더스크린광주금남로,3관,광주/전라,2D
062-410-7173,광주광역시 동구 불로동 1-21,광주광역시 동구 중앙로160번길 16-7 (불로동),더스크린광주금남로,2관,광주/전라,2D
062-410-7173,광주광역시 동구 불로동 1-21,광주광역시 동구 중앙로160번길 16-7 (불로동),더스크린광주금남로,9관,광주/전라,2D
062-410-7173,광주광역시 동구 불로동 1-21,광주광역시 동구 중앙로160번길 16-7 (불로동),더스크린광주금남로,8관,광주/전라,2D
070-4253-1970,충청북도 음성군 맹동면 동성리 500,"충청북도 음성군 맹동면 대하1길 10, 5층",더스크린 충북혁신,1관,대전/충청/세종,2D
,충청북도 음성군 맹동면 동성리 500번지,"충청북도 음성군 맹동면 대하1길 10, 5층",더스크린 충북혁신,2관,대전/충청/세종,2D
,충청북도 음성군 맹동면 동성리 500번지,"충청북도 음성군 맹동면 대하1길 10, 5층",더스크린 충북혁신,3관,대전/충청/세종,2D
,충청북도 음성군 맹동면 동성리 500번지,"충청북도 음성군 맹동면 대하1길 10, 5층",더스크린 충북혁신,4관,대전/충청/세종,2D
,충청북도 음성군 맹동면 동성리 500번지,"충청북도 음성군 맹동면 대하1길 10, 5층",더스크린 충북혁신,5관,대전/충청/세종,2D
02-3665-9064,서울특별시 강서구 등촌동 639-23 3~9층,"서울특별시 강서구 공항대로45길 63, 3~9층 (등촌동)",더스크린 등촌,1관,서울,2D
02-3665-9064,서울특별시 강서구 등촌동 639-23 3~9층,"서울특별시 강서구 공항대로45길 63, 3~9층 (등촌동)",더스크린 등촌,2관,서울,2D
02-3665-9064,서울특별시 강서구 등촌동 639-23 3~9층,"서울특별시 강서구 공항대로45길 63, 3~9층 (등촌동)",더스크린 등촌,3관,서울,2D
02-3665-9064,서울특별시 강서구 등촌동 639-23 3~9층,"서울특별시 강서구 공항대로45길 63, 3~9층 (등촌동)",더스크린 등촌,4관,서울,2D
02-3665-9064,서울특별시 강서구 등촌동 639-23 3~9층,"서울특별시 강서구 공항대로45길 63, 3~9층 (등촌동)",더스크린 등촌,5관,서울,2D
02-3665-9064,서울특별시 강서구 등촌동 639-23 3~9층,"서울특별시 강서구 공항대로45길 63, 3~9층 (등촌동)",더스크린 등촌,6관,서울,2D
052-955-2226,울산광역시 북구 진장동 120-9 CGV,"울산광역시 북구 진장유통로 51-10, CGV (진장동)",더스크린 울산진장,1관,부산/대구/경상,2D
,울산광역시 북구 진장동 120-9 CGV,"울산광역시 북구 진장유통로 51-10, CGV (진장동)",더스크린 울산진장,2관,부산/대구/경상,2D
,울산광역시 북구 진장동 120-9 CGV,"울산광역시 북구 진장유통로 51-10, CGV (진장동)",더스크린 울산진장,3관,부산/대구/경상,2D
,울산광역시 북구 진장동 120-9 CGV,"울산광역시 북구 진장유통로 51-10, CGV (진장동)",더스크린 울산진장,4관,부산/대구/경상,2D
,울산광역시 북구 진장동 120-9 CGV,"울산광역시 북구 진장유통로 51-10, CGV (진장동)",더스크린 울산진장,5관,부산/대구/경상,2D
,울산광역시 북구 진장동 120-9 CGV,"울산광역시 북구 진장유통로 51-10, CGV (진장동)",더스크린 울산진장,6관,부산/대구/경상,2D
,울산광역시 북구 진장동 120-9 CGV,"울산광역시 북구 진장유통로 51-10, CGV (진장동)",더스크린 울산진장,7관,부산/대구/경상,2D
,광주광역시 광산구 하남동 832 TERRACE56  PICNICMALL,"광주광역시 광산구 용아로400번길 30, TERRACE56  PICNICMALL 2층 (하남동)",더스크린 광주하남,2관,광주/전라,2D
,광주광역시 광산구 하남동 832 TERRACE56  PICNICMALL,"광주광역시 광산구 용아로400번길 30, TERRACE56  PICNICMALL 2층 (하남동)",더스크린 광주하남,3관,광주/전라,2D
,광주광역시 광산구 하남동 832 TERRACE56  PICNICMALL,"광주광역시 광산구 용아로400번길 30, TERRACE56  PICNICMALL 2층 (하남동)",더스크린 광주하남,4관,광주/전라,2D
,광주광역시 광산구 하남동 832 TERRACE56  PICNICMALL,"광주광역시 광산구 용아로400번길 30, TERRACE56  PICNICMALL 2층 (하남동)",더스크린 광주하남,5관,광주/전라,2D
,광주광역시 광산구 하남동 832 TERRACE56  PICNICMALL,"광주광역시 광산구 용아로400번길 30, TERRACE56  PICNICMALL 2층 (하남동)",더스크린 광주하남,6관,광주/전라,2D
,광주광역시 광산구 하남동 832 TERRACE56  PICNICMALL,"광주광역시 광산구 용아로400번길 30, TERRACE56  PICNICMALL 2층 (하남동)",더스크린 광주하남,1관,광주/전라,2D
,경기도 용인시 수지구 상현동 1116-4번지,"경기도 용인시 수지구 광교중앙로295번길 9, 3층 (상현동)",더스크린 광교상현,1관,경기,2D
,경기도 용인시 수지구 상현동 1116-4번지,"경기도 용인시 수지구 광교중앙로295번길 9, 3층 (상현동)",더스크린 광교상현,2관,경기,2D
,경기도 용인시 수지구 상현동 1116-4번지,"경기도 용인시 수지구 광교중앙로295번길 9, 3층 (상현동)",더스크린 광교상현,3관,경기,2D
,경기도 용인시 수지구 상현동 1116-4번지,"경기도 용인시 수지구 광교중앙로295번길 9, 3층 (상현동)",더스크린 광교상현,4관,경기,2D
,경기도 안성시 석정동 139-1,경기도 안성시 아양2로 109 (석정동),더스크린 안성,8관,경기,2D
,경기도 안성시 석정동 139-1,경기도 안성시 아양2로 109 (석정동),더스크린 안성,7관,경기,2D
,경기도 안성시 석정동 139-1,경기도 안성시 아양2로 109 (석정동),더스크린 안성,6관,경기,2D
,경기도 안성시 석정동 139-1,경기도 안성시 아양2로 109 (석정동),더스크린 안성,5관,경기,2D
031-677-3790,경기도 안성시 석정동 139-1,경기도 안성시 아양2로 109 (석정동),더스크린 안성,4관,경기,2D
,경기도 안성시 석정동 139-1,경기도 안성시 아양2로 109 (석정동),더스크린 안성,3관,경기,2D
,경기도 안성시 석정동 139-1,경기도 안성시 아양2로 109 (석정동),더스크린 안성,2관,경기,2D
,경기도 안성시 석정동 139-1,경기도 안성시 아양2로 109 (석정동),더스크린 안성,1관,경기,2D
032-721-5660,인천광역시 서구 청라동 155-7 청라스퀘어세븐 350호,"인천광역시 서구 청라루비로 76, 청라스퀘어세븐 3층 350호 (경서동)",더스크린 청라,1관,인천,2D
032-721-5660,인천광역시 서구 청라동 155-7 청라스퀘어세븐 350호,"인천광역시 서구 청라루비로 76, 청라스퀘어세븐 3층 350호 (경서동)",더스크린 청라,2관,인천,2D
032-721-5660,인천광역시 서구 청라동 155-7 청라스퀘어세븐 350호,"인천광역시 서구 청라루비로 76, 청라스퀘어세븐 3층 350호 (경서동)",더스크린 청라,3관,인천,2D
032-721-5660,인천광역시 서구 청라동 155-7 청라스퀘어세븐 350호,"인천광역시 서구 청라루비로 76, 청라스퀘어세븐 3층 350호 (경서동)",더스크린 청라,4관,인천,2D
032-721-5660,인천광역시 서구 청라동 155-7 청라스퀘어세븐 350호,"인천광역시 서구 청라루비로 76, 청라스퀘어세븐 3층 350호 (경서동)",더스크린 청라,5관,인천,2D
032-721-5660,인천광역시 서구 청라동 155-7 청라스퀘어세븐 350호,"인천광역시 서구 청라루비로 76, 청라스퀘어세븐 3층 350호 (경서동)",더스크린 청라,6관,인천,2D
032-721-5660,인천광역시 서구 청라동 155-7 청라스퀘어세븐 350호,"인천광역시 서구 청라루비로 76, 청라스퀘어세븐 3층 350호 (경서동)",더스크린 청라,7관,인천,2D
063-460-0961,전북특별자치도 전주시 완산구 효자동3가 1531-2 M-SQUARE,"전북특별자치도 전주시 완산구 홍산로 260, M-SQUARE 6층 (효자동3가)",더스크린서전주,1관,광주/전라,2D
063-460-0961,전북특별자치도 전주시 완산구 효자동3가 1531-2 M-SQUARE,"전북특별자치도 전주시 완산구 홍산로 260, M-SQUARE 6층 (효자동3가)",더스크린서전주,2관,광주/전라,2D
063-460-0961,전북특별자치도 전주시 완산구 효자동3가 1531-2 M-SQUARE,"전북특별자치도 전주시 완산구 홍산로 260, M-SQUARE 6층 (효자동3가)",더스크린서전주,3관,광주/전라,2D
063-460-0961,전북특별자치도 전주시 완산구 효자동3가 1531-2 M-SQUARE,"전북특별자치도 전주시 완산구 홍산로 260, M-SQUARE 6층 (효자동3가)",더스크린서전주,4관,광주/전라,2D
063-460-0961,전북특별자치도 전주시 완산구 효자동3가 1531-2 M-SQUARE,"전북특별자치도 전주시 완산구 홍산로 260, M-SQUARE 6층 (효자동3가)",더스크린서전주,5관,광주/전라,2D
,경기도 화성시 오산동 967-150,"경기도 화성시 동탄대로 537, 5-7층 (오산동)",더스크린동탄역,2관,경기,2D
,경기도 화성시 오산동 967-150,"경기도 화성시 동탄대로 537, 5-7층 (오산동)",더스크린동탄역,3관,경기,2D
,경기도 화성시 오산동 967-150,"경기도 화성시 동탄대로 537, 5-7층 (오산동)",더스크린동탄역,4관,경기,2D
,경기도 화성시 오산동 967-150,"경기도 화성시 동탄대로 537, 5-7층 (오산동)",더스크린동탄역,5관,경기,2D
,경기도 화성시 오산동 967-150,"경기도 화성시 동탄대로 537, 5-7층 (오산동)",더스크린동탄역,6관,경기,2D
,경기도 화성시 오산동 967-150,"경기도 화성시 동탄대로 537, 5-7층 (오산동)",더스크린동탄역,7관,경기,2D
,경기도 화성시 오산동 967-150,"경기도 화성시 동탄대로 537, 5-7층 (오산동)",더스크린동탄역,1관,경기,2D
,서울특별시 광진구 자양동 9-4 몰오브케이,"서울특별시 광진구 아차산로30길 26, 몰오브케이 4층 (자양동)",더스크린 건대입구,1관,서울,2D
,서울특별시 광진구 자양동 9-4 몰오브케이,"서울특별시 광진구 아차산로30길 26, 몰오브케이 4층 (자양동)",더스크린 건대입구,2관,서울,2D
,서울특별시 광진구 자양동 9-4 몰오브케이,"서울특별시 광진구 아차산로30길 26, 몰오브케이 4층 (자양동)",더스크린 건대입구,3관,서울,2D
,서울특별시 광진구 자양동 9-4 몰오브케이,"서울특별시 광진구 아차산로30길 26, 몰오브케이 4층 (자양동)",더스크린 건대입구,4관,서울,2D
,서울특별시 광진구 자양동 9-4 몰오브케이,"서울특별시 광진구 아차산로30길 26, 몰오브케이 4층 (자양동)",더스크린 건대입구,5관,서울,2D
031-499-8372,경기도 시흥시 정왕동 1771-1 서영베니스스퀘어,"경기도 시흥시 서울대학로278번길 61, 서영베니스스퀘어 7~8층 (정왕동)",더스크린,배곧3관,경기,2D
031-499-8370,경기도 시흥시 정왕동 1771-1 서영베니스스퀘어,"경기도 시흥시 서울대학로278번길 61, 서영베니스스퀘어 7~8층 (정왕동)",더스크린,배곧4관,경기,2D
031-499-8370,경기도 시흥시 정왕동 1771-1 서영베니스스퀘어,"경기도 시흥시 서울대학로278번길 61, 서영베니스스퀘어 7~8층 (정왕동)",더스크린,배곧5관,경기,2D
031-499-8370,경기도 시흥시 정왕동 1771-1 서영베니스스퀘어,"경기도 시흥시 서울대학로278번길 61, 서영베니스스퀘어 7~8층 (정왕동)",더스크린,배곧6관,경기,2D
031-499-8372,경기도 시흥시 정왕동 1771-1 서영베니스스퀘어,"경기도 시흥시 서울대학로278번길 61, 서영베니스스퀘어 7~8층 (정왕동)",더스크린,배곧1관,경기,2D
031-499-8372,경기도 시흥시 정왕동 1771-1 서영베니스스퀘어,"경기도 시흥시 서울대학로278번길 61, 서영베니스스퀘어 7~8층 (정왕동)",더스크린,배곧2관,경기,2D
051-714-2760,부산광역시 기장군 정관읍 매학리 717-6,부산광역시 기장군 정관읍 정관중앙로 45,더스크린 정관,1관,부산/대구/경상,2D
051-714-2760,부산광역시 기장군 정관읍 매학리 717-6,부산광역시 기장군 정관읍 정관중앙로 45,더스크린 정관,2관,부산/대구/경상,2D
051-714-2760,부산광역시 기장군 정관읍 매학리 717-6,부산광역시 기장군 정관읍 정관중앙로 45,더스크린 정관,4관,부산/대구/경상,2D
051-714-2760,부산광역시 기장군 정관읍 매학리 717-6,부산광역시 기장군 정관읍 정관중앙로 45,더스크린 정관,5관,부산/대구/경상,2D
051-714-2760,부산광역시 기장군 정관읍 매학리 717-6,부산광역시 기장군 정관읍 정관중앙로 45,더스크린 정관,6관,부산/대구/경상,2D
051-714-2760,부산광역시 기장군 정관읍 매학리 717-6,부산광역시 기장군 정관읍 정관중앙로 45,더스크린 정관,3관,부산/대구/경상,2D
051-714-2760,부산광역시 기장군 정관읍 매학리 717-6,부산광역시 기장군 정관읍 정관중앙로 45,더스크린 정관,7관,부산/대구/경상,2D
051-714-2760,부산광역시 기장군 정관읍 매학리 717-6번지,부산광역시 기장군 정관읍 정관중앙로 45,더스크린 정관,8관,부산/대구/경상,2D
051-714-2760,부산광역시 기장군 정관읍 매학리 717-6,부산광역시 기장군 정관읍 정관중앙로 45,더스크린 정관,9관,부산/대구/경상,2D
02-2136-3500,서울특별시 중구 을지로6가 17-2 현대시티타워,"서울특별시 중구 장충단로13길 20, 현대시티타워 10층 (을지로6가)",더스크린 동대문,1관,서울,2D
02-2136-3500,서울특별시 중구 을지로6가 17-2 현대시티타워,"서울특별시 중구 장충단로13길 20, 현대시티타워 10층 (을지로6가)",더스크린 동대문,4관,서울,2D
02-2136-3500,서울특별시 중구 을지로6가 17-2 현대시티타워,"서울특별시 중구 장충단로13길 20, 현대시티타워 10층 (을지로6가)",더스크린 동대문,5관,서울,2D
02-2136-3500,서울특별시 중구 을지로6가 17-2 현대시티타워,"서울특별시 중구 장충단로13길 20, 현대시티타워 10층 (을지로6가)",더스크린 동대문,6관,서울,2D
02-2136-3500,서울특별시 중구 을지로6가 17-2 현대시티타워,"서울특별시 중구 장충단로13길 20, 현대시티타워 10층 (을지로6가)",더스크린 동대문,2관,서울,2D
02-2136-3500,서울특별시 중구 을지로6가 17-2 현대시티타워,"서울특별시 중구 장충단로13길 20, 현대시티타워 10층 (을지로6가)",더스크린 동대문,3관,서울,2D
1544-1122,충청남도 홍성군 홍성읍 고암리 1042,"충청남도 홍성군 홍성읍 조양로247번길 9 (롯데마트, 홍성터미널)",더스크린 홍성,6관,대전/충청/세종,2D
1544-1122,충청남도 홍성군 홍성읍 고암리 1042 리산인플렉스 6층,"충청남도 홍성군 홍성읍 조양로247번길 9 (롯데마트, 홍성터미널)",더스크린 홍성,5관,대전/충청/세종,2D
1544-1122,경기도 광주시 역동 16-1,경기도 광주시 중앙로 89 (역동),더스크린 경기광주점,4관,경기,2D
1544-1122,경기도 광주시 역동 16-1,경기도 광주시 중앙로 89 (역동),더스크린 경기광주점,7관,경기,2D
1544-1122,경기도 광주시 역동 16-1,경기도 광주시 중앙로 89 (역동),더스크린 경기광주점,8관,경기,2D
1544-1122,경기도 광주시 역동 16-1,경기도 광주시 중앙로 89 (역동),더스크린 경기광주점,2관,경기,2D
1544-1122,경기도 광주시 역동 16-1,경기도 광주시 중앙로 89 (역동),더스크린 경기광주점,3관,경기,2D
1544-1122,경기도 광주시 역동 16-1,경기도 광주시 중앙로 89 (역동),더스크린경기광주점,1관,경기,2D
1544-1122,경기도 광주시 역동 16-1,경기도 광주시 중앙로 89 (역동),더스크린 경기광주점,5관,경기,2D
1544-1122,경기도 광주시 역동 16-1,경기도 광주시 중앙로 89 (역동),더스크린 경기광주점,6관,경기,2D
,전라남도 광양시 금호동 624-12,전라남도 광양시 금호로 26 (금호동),더스크린 광양,1상영관,광주/전라,2D
,전라남도 광양시 금호동 624-12,전라남도 광양시 금호로 26 (금호동),더스크린 광양,2상영관,광주/전라,2D
,전라남도 광양시 금호동 624-12,전라남도 광양시 금호로 26 (금호동),더스크린 광양,3상영관,광주/전라,2D
,전라남도 광양시 금호동 624-12,전라남도 광양시 금호로 26 (금호동),더스크린 광양,4상영관,광주/전라,2D
,부산광역시 사하구 하단동 526-6,"부산광역시 사하구 낙동남로 1413, 12층 (하단동, 아트몰링)",더스크린하단아트몰링,1관,부산/대구/경상,2D
051-999-7252,부산광역시 사하구 하단동 526-6,"부산광역시 사하구 낙동남로 1413, 12층 (하단동, 아트몰링)",더스크린하단아트몰링,2관,부산/대구/경상,2D
051-999-7252,부산광역시 사하구 하단동 526-6번지,"부산광역시 사하구 낙동남로 1413, 12층 (하단동, 아트몰링)",더스크린하단아트몰링,3관,부산/대구/경상,2D
051-999-7252,부산광역시 사하구 하단동 526-6번지,"부산광역시 사하구 낙동남로 1413, 12층 (하단동, 아트몰링)",더스크린하단아트몰링,4관,부산/대구/경상,2D
051-999-7252,부산광역시 사하구 하단동 526-6번지,"부산광역시 사하구 낙동남로 1413, 12층 (하단동, 아트몰링)",더스크린하단아트몰링,5관,부산/대구/경상,2D
051-999-7252,부산광역시 사하구 하단동 526-6번지,"부산광역시 사하구 낙동남로 1413, 12층 (하단동, 아트몰링)",더스크린하단아트몰링,6관,부산/대구/경상,2D
051-999-7252,부산광역시 사하구 하단동 526-6번지,"부산광역시 사하구 낙동남로 1413, 12층 (하단동, 아트몰링)",더스크린하단아트몰링,키즈관,부산/대구/경상,키즈관
031-646-6824,경기도 평택시 비전동 1090-2,"경기도 평택시 평남로 862, 5층 (비전동)",더스크린 평택소사,3관,경기,2D
031-646-6824,경기도 평택시 비전동 1090-2,"경기도 평택시 평남로 862, 5층 (비전동)",더스크린 평택소사,4관,경기,2D
031-646-6824,경기도 평택시 비전동 1090-2,"경기도 평택시 평남로 862, 5층 (비전동)",더스크린 평택소사,5관,경기,2D
031-646-6824,경기도 평택시 비전동 1090-2,"경기도 평택시 평남로 862, 5층 (비전동)",더스크린 평택소사,6관,경기,2D
031-646-6824,경기도 평택시 비전동 1090-2,"경기도 평택시 평남로 862, 5층 (비전동)",더스크린 평택소사,1관,경기,2D
031-646-6824,경기도 평택시 비전동 1090-2,"경기도 평택시 평남로 862, 5층 (비전동)",더스크린 평택소사,2관,경기,2D
062-718-9500,광주광역시 동구 충장로4가 29-2,"광주광역시 동구 중앙로 163, 11층 (충장로4가, NC 웨이브 충장점)",더스크린 광주충장로,3관,광주/전라,2D
062-718-9500,광주광역시 동구 충장로4가 29-2,"광주광역시 동구 중앙로 163, 11층 (충장로4가, NC 웨이브 충장점)",더스크린 광주충장로,4관,광주/전라,2D
062-718-9500,광주광역시 동구 충장로4가 29-2,"광주광역시 동구 중앙로 163, 11층 (충장로4가, NC 웨이브 충장점)",더스크린 광주충장로,5관,광주/전라,2D
062-718-9500,광주광역시 동구 충장로4가 29-2,"광주광역시 동구 중앙로 163, 11층 (충장로4가, NC 웨이브 충장점)",더스크린 광주충장로,1관,광주/전라,2D
062-718-9500,광주광역시 동구 충장로4가 29-2,"광주광역시 동구 중앙로 163, 11층 (충장로4가, NC 웨이브 충장점)",더스크린 광주충장로,2관,광주/전라,2D
053-635-8312,대구광역시 달서구 월성동 1846,대구광역시 달서구 조암로 29 (월성동),더스크린 대구월성,1관,부산/대구/경상,2D
053-635-8312,대구광역시 달서구 월성동 1846,대구광역시 달서구 조암로 29 (월성동),더스크린 대구월성,2관,부산/대구/경상,2D
053-635-8312,대구광역시 달서구 월성동 1846,대구광역시 달서구 조암로 29 (월성동),더스크린 대구월성,4관,부산/대구/경상,2D
053-635-8312,대구광역시 달서구 월성동 1846,대구광역시 달서구 조암로 29 (월성동),더스크린 대구월성,3관,부산/대구/경상,2D
053-635-8312,대구광역시 달서구 월성동 1846,대구광역시 달서구 조암로 29 (월성동),더스크린 대구월성,5관,부산/대구/경상,2D
053-635-8312,대구광역시 달서구 월성동 1846,대구광역시 달서구 조암로 29 (월성동),더스크린 대구월성,6관,부산/대구/경상,2D
,경상북도 김천시 율곡동 1123번지,"경상북도 김천시 혁신2로 15 (율곡동, 더스퀘어)",더스크린  김천율곡,4관,부산/대구/경상,2D
,경상북도 김천시 율곡동 1123번지,"경상북도 김천시 혁신2로 15 (율곡동, 더스퀘어)",더스크린 김천율곡,5관,부산/대구/경상,2D
,경상북도 김천시 율곡동 1123번지,"경상북도 김천시 혁신2로 15 (율곡동, 더스퀘어)",더스크린  김천율곡,1관,부산/대구/경상,2D
,경상북도 김천시 율곡동 1123번지,"경상북도 김천시 혁신2로 15 (율곡동, 더스퀘어)",더스크린  김천율곡,2관,부산/대구/경상,2D
,경상북도 김천시 율곡동 1123번지,"경상북도 김천시 혁신2로 15 (율곡동, 더스퀘어)",더스크린  김천율곡,3관,부산/대구/경상,2D
0424860521,대전광역시 서구 탄방동 744 세이탄방점,"대전광역시 서구 문정로 85, 세이탄방점 7층 (탄방동)",더스크린 대전탄방,4관,대전/충청/세종,2D
0424860521,대전광역시 서구 탄방동 744 세이탄방점,"대전광역시 서구 문정로 85, 세이탄방점 7층 (탄방동)",더스크린 대전탄방,3관,대전/충청/세종,2D
0424860521,대전광역시 서구 탄방동 744 세이탄방점,"대전광역시 서구 문정로 85, 세이탄방점 7층 (탄방동)",더스크린 대전탄방,1관,대전/충청/세종,2D
0424860521,대전광역시 서구 탄방동 744 세이탄방점,"대전광역시 서구 문정로 85, 세이탄방점 7층 (탄방동)",더스크린 대전탄방,6관,대전/충청/세종,2D
0424860521,대전광역시 서구 탄방동 744 세이탄방점,"대전광역시 서구 문정로 85, 세이탄방점 7층 (탄방동)",더스크린 대전탄방,5관,대전/충청/세종,2D
0424860521,대전광역시 서구 탄방동 744 세이탄방점,"대전광역시 서구 문정로 85, 세이탄방점 7층 (탄방동)",더스크린 대전탄방,2관,대전/충청/세종,2D
063-288-9033,전북특별자치도 전주시 완산구 고사동 355-1,전북특별자치도 전주시 완산구 전주객사3길 72 (고사동),더스크린 전주고사,1관,광주/전라,2D
063-288-9033,전북특별자치도 전주시 완산구 고사동 355-1,전북특별자치도 전주시 완산구 전주객사3길 72 (고사동),더스크린 전주고사,2관,광주/전라,2D
063-288-9033,전북특별자치도 전주시 완산구 고사동 355-1,전북특별자치도 전주시 완산구 전주객사3길 72 (고사동),더스크린전주고사,6관,광주/전라,2D
063-288-9033,전북특별자치도 전주시 완산구 고사동 355-1,전북특별자치도 전주시 완산구 전주객사3길 72 (고사동),더스크린 전주고사,3관,광주/전라,2D
063-288-9033,전북특별자치도 전주시 완산구 고사동 355-1,전북특별자치도 전주시 완산구 전주객사3길 72 (고사동),더스크린,전주고사4관,광주/전라,2D
063-288-9033,전북특별자치도 전주시 완산구 고사동 355-1,전북특별자치도 전주시 완산구 전주객사3길 72 (고사동),더스크린 전주고사,5관,광주/전라,2D
063-288-9033,전북특별자치도 전주시 완산구 고사동 355-1,전북특별자치도 전주시 완산구 전주객사3길 72 (고사동),더스크린전주고사,7관,광주/전라,2D
063-288-9033,전북특별자치도 전주시 완산구 고사동 355-1,전북특별자치도 전주시 완산구 전주객사3길 72 (고사동),더스크린 전주고사,8관,광주/전라,4DX
02-2638-2752,서울특별시 영등포구 영등포동4가 442,"서울특별시 영등포구 영중로 15, 6층 (영등포동4가, 타임스퀘어)",더스크린 영등포,3관,서울,2D
02-2638-2752,서울특별시 영등포구 영등포동4가 442,"서울특별시 영등포구 영중로 15, 6층 (영등포동4가, 타임스퀘어)",더스크린 영등포,4관,서울,2D
02-2638-2752,서울특별시 영등포구 영등포동4가 442,"서울특별시 영등포구 영중로 15, 6층 (영등포동4가, 타임스퀘어)",더스크린 영등포,5관,서울,2D
02-2638-2752,서울특별시 영등포구 영등포동4가 442,"서울특별시 영등포구 영중로 15, 6층 (영등포동4가, 타임스퀘어)",더스크린 영등포,8관,서울,2D
02-2638-2752,서울특별시 영등포구 영등포동4가 442,"서울특별시 영등포구 영중로 15, 6층 (영등포동4가, 타임스퀘어)",더스크린 영등포,6관,서울,2D
02-2638-2752,서울특별시 영등포구 영등포동4가 442,"서울특별시 영등포구 영중로 15, 6층 (영등포동4가, 타임스퀘어)",더스크린 영등포,7관,서울,2D
02-2638-2752,서울특별시 영등포구 영등포동4가 442,"서울특별시 영등포구 영중로 15, 6층 (영등포동4가, 타임스퀘어)",더스크린 영등포,12관,서울,IMAX
02-2638-2752,서울특별시 영등포구 영등포동4가 442,"서울특별시 영등포구 영중로 15, 6층 (영등포동4가, 타임스퀘어)",더스크린 영등포,10관,서울,골드클래스
02-2638-2752,서울특별시 영등포구 영등포동4가 442,"서울특별시 영등포구 영중로 15, 6층 (영등포동4가, 타임스퀘어)",더스크린 영등포,11관,서울,2D
02-2638-2752,서울특별시 영등포구 영등포동4가 442,"서울특별시 영등포구 영중로 15, 6층 (영등포동4가, 타임스퀘어)",더스크린 영등포,9관,서울,2D
02-2638-2752,서울특별시 영등포구 영등포동4가 442,"서울특별시 영등포구 영중로 15, 6층 (영등포동4가, 타임스퀘어)",더스크린 영등포,1관,서울,2D
044-868-4853,세종특별자치시 종촌동 673,"세종특별자치시 도움1로 108, 7층 (종촌동, 몰리브)",더스크린,세종1관,대전/충청/세종,2D
044-868-4853,세종특별자치시 종촌동 673,"세종특별자치시 도움1로 108, 7층 (종촌동, 몰리브)",더스크린,세종5관,대전/충청/세종,2D
044-868-4853,세종특별자치시 종촌동 673,"세종특별자치시 도움1로 108, 7층 (종촌동, 몰리브)",더스크린,세종6관,대전/충청/세종,2D
044-868-4853,세종특별자치시 종촌동 673,"세종특별자치시 도움1로 108, 7층 (종촌동, 몰리브)",더스크린,세종7관,대전/충청/세종,2D
044-868-4853,세종특별자치시 종촌동 673,"세종특별자치시 도움1로 108, 7층 (종촌동, 몰리브)",더스크린,세종2관,대전/충청/세종,2D
044-868-4853,세종특별자치시 종촌동 673,"세종특별자치시 도움1로 108, 7층 (종촌동, 몰리브)",더스크린,세종3관,대전/충청/세종,2D
044-868-4853,세종특별자치시 종촌동 673,"세종특별자치시 도움1로 108, 7층 (종촌동, 몰리브)",더스크린,세종4관,대전/충청/세종,2D
02-371-6670,부산광역시 해운대구 우동 539-10 라뮤에뜨 2층,"부산광역시 해운대구 해운대로 620 (우동, 해운대 라뮤에뜨)",더스크린 해운대,2관,부산/대구/경상,2D
02-371-6670,부산광역시 해운대구 우동 539-10 라뮤에뜨 2층,"부산광역시 해운대구 해운대로 620 (우동, 해운대 라뮤에뜨)",더스크린 해운대,3관,부산/대구/경상,2D
02-371-6670,부산광역시 해운대구 우동 539-10 라뮤에뜨 2층,"부산광역시 해운대구 해운대로 620 (우동, 해운대 라뮤에뜨)",더스크린 해운대,4관,부산/대구/경상,2D
02-371-6670,부산광역시 해운대구 우동 539-10 라뮤에뜨 2층,"부산광역시 해운대구 해운대로 620 (우동, 해운대 라뮤에뜨)",더스크린 해운대,5관,부산/대구/경상,2D
02-371-6670,부산광역시 해운대구 우동 539-10 라뮤에뜨 2층,"부산광역시 해운대구 해운대로 620 (우동, 해운대 라뮤에뜨)",더스크린 해운대,6관,부산/대구/경상,2D
02-371-6670,부산광역시 해운대구 우동 539-10 라뮤에뜨 2층,"부산광역시 해운대구 해운대로 620 (우동, 해운대 라뮤에뜨)",더스크린 해운대,1관,부산/대구/경상,2D
,경기도 성남시 분당구 백현동 541,"경기도 성남시 분당구 판교역로146번길 20, 8층 (백현동, 현대백화점)",더스크린 판교,1관,경기,2D
,경기도 성남시 분당구 백현동 541,"경기도 성남시 분당구 판교역로146번길 20, 8층 (백현동, 현대백화점)",더스크린 판교,2관,경기,2D
,경기도 성남시 분당구 백현동 541,"경기도 성남시 분당구 판교역로146번길 20, 8층 (백현동, 현대백화점)",더스크린판교,3관,경기,2D
,경기도 성남시 분당구 백현동 541,"경기도 성남시 분당구 판교역로146번길 20, 8층 (백현동, 현대백화점)",더스크린 판교,4관,경기,2D
,경기도 성남시 분당구 백현동 541,"경기도 성남시 분당구 판교역로146번길 20, 8층 (백현동, 현대백화점)",더스크린판교,5관,경기,2D
,경기도 성남시 분당구 백현동 541,"경기도 성남시 분당구 판교역로146번길 20, 8층 (백현동, 현대백화점)",더스크린판교,6관,경기,4DX
041-665-7439,충청남도 서산시 동문동 1029-1,충청남도 서산시 안견로 242 (동문동),더스크린서산,1관,대전/충청/세종,2D
041-665-7439,충청남도 서산시 동문동 1029-1,충청남도 서산시 안견로 242 (동문동),더스크린서산,2관,대전/충청/세종,2D
041-665-7439,충청남도 서산시 동문동 1029-1,충청남도 서산시 안견로 242 (동문동),더스크린서산,3관,대전/충청/세종,2D
041-665-7439,충청남도 서산시 동문동 1029-1,충청남도 서산시 안견로 242 (동문동),더스크린서산,4관,대전/충청/세종,2D
041-665-7439,충청남도 서산시 동문동 1029-1,충청남도 서산시 안견로 242 (동문동),더스크린서산,5관,대전/충청/세종,2D
041-665-7439,충청남도 서산시 동문동 1029-1,충청남도 서산시 안견로 242 (동문동),더스크린서산,6관,대전/충청/세종,2D
041-665-7439,충청남도 서산시 동문동 1029-1,충청남도 서산시 안견로 242 (동문동),더스크린서산,7관,대전/충청/세종,2D
041-665-7439,충청남도 서산시 동문동 1029-1,충청남도 서산시 안견로 242 (동문동),더스크린서산,8관,대전/충청/세종,2D
,서울특별시 강동구 천호동 42,"서울특별시 강동구 양재대로 1571, 4층 (천호동)",더스크린 천호,2관,서울,2D
,서울특별시 강동구 천호동 42,"서울특별시 강동구 양재대로 1571, 4층 (천호동)",더스크린 천호,3관,서울,2D
,서울특별시 강동구 천호동 42,"서울특별시 강동구 양재대로 1571, 4층 (천호동)",더스크린 천호,4관,서울,2D
,서울특별시 강동구 천호동 42,"서울특별시 강동구 양재대로 1571, 4층 (천호동)",더스크린 천호,5관,서울,2D
,서울특별시 강동구 천호동 42,"서울특별시 강동구 양재대로 1571, 4층 (천호동)",더스크린 천호,6관,서울,2D
,서울특별시 강동구 천호동 42,"서울특별시 강동구 양재대로 1571, 4층 (천호동)",더스크린 천호,1관,서울,2D
,전라남도 여수시 웅천동 1720-3,전라남도 여수시 웅천로 19-35 (웅천동),더스크린여수웅천,6관,광주/전라,2D
061-643-6000,전라남도 여수시 웅천동 1699-501,전라남도 여수시 웅천로 19-35 (웅천동),더스크린여수웅천,1관,광주/전라,2D
,전라남도 여수시 웅천동 1720-3,"전라남도 여수시 웅천로 19-35, 501호 (웅천동)",더스크린여수웅천,2관,광주/전라,2D
,전라남도 여수시 웅천동 1720-3,전라남도 여수시 웅천로 19-35 (웅천동),더스크린여수웅천,3관,광주/전라,2D
,전라남도 여수시 웅천동 1720-3,전라남도 여수시 웅천로 19-35 (웅천동),더스크린여수웅천,4관,광주/전라,2D
,전라남도 여수시 웅천동 1720-3,전라남도 여수시 웅천로 19-35 (웅천동),더스크린여수웅천,5관,광주/전라,2D
,전라남도 여수시 웅천동 1720-3,전라남도 여수시 웅천로 19-35 (웅천동),더스크린여수웅천,8관,광주/전라,2D
,전라남도 여수시 웅천동 1720-3,전라남도 여수시 웅천로 19-35 (웅천동),더스크린여수웅천,7관,광주/전라,2D
031-638-6820,경기도 이천시 중리동 201-1번지,경기도 이천시 중리천로 58 (중리동),더스크린이천,1관,경기,2D
031-638-6820,경기도 이천시 중리동 201-1번지,경기도 이천시 중리천로 58 (중리동),더스크린이천,2관,경기,2D
031-638-6820,경기도 이천시 중리동 201-1번지,경기도 이천시 중리천로 58 (중리동),더스크린이천,3관,경기,2D
031-638-6820,경기도 이천시 중리동 201-1번지,경기도 이천시 중리천로 58 (중리동),더스크린이천,4관,경기,2D
031-638-6820,경기도 이천시 중리동 201-1번지,경기도 이천시 중리천로 58 (중리동),더스크린이천,5관,경기,2D
031-638-6820,경기도 이천시 중리동 201-1번지,경기도 이천시 중리천로 58 (중리동),더스크린이천,6관,경기,2D
031-638-6820,경기도 이천시 중리동 201-1번지,경기도 이천시 중리천로 58 (중리동),더스크린이천,7관,경기,2D
031-638-6820,경기도 이천시 중리동 201-1번지,경기도 이천시 중리천로 58 (중리동),더스크린이천,8관,경기,2D
031-638-6820,경기도 이천시 중리동 201-1번지,경기도 이천시 중리천로 58 (중리동),더스크린이천,9관,경기,2D
041-547-9070,충청남도 천안시 서북구 불당동 1289,"충청남도 천안시 서북구 공원로 196, 6층 (불당동)",더스크린천안펜타포트,2관,대전/충청/세종,2D
041-547-9070,충청남도 천안시 서북구 불당동 1289,"충청남도 천안시 서북구 공원로 196, 6층 (불당동)",더스크린천안펜타포트,3관,대전/충청/세종,2D
041-547-9070,충청남도 천안시 서북구 불당동 1289,"충청남도 천안시 서북구 공원로 196, 6층 (불당동)",더스크린천안펜타포트,5관,대전/충청/세종,2D
041-547-9070,충청남도 천안시 서북구 불당동 1289,"충청남도 천안시 서북구 공원로 196, 6층 (불당동)",더스크린천안펜타포트,7관,대전/충청/세종,2D
041-547-9070,충청남도 천안시 서북구 불당동 1289,"충청남도 천안시 서북구 공원로 196, 6층 (불당동)",더스크린천안펜타포트,8관,대전/충청/세종,2D
041-547-9070,충청남도 천안시 서북구 불당동 1289,"충청남도 천안시 서북구 공원로 196, 6층 (불당동)",더스크린천안펜타포트,IMAX관,대전/충청/세종,IMAX
041-547-9070,충청남도 천안시 서북구 불당동 1289,"충청남도 천안시 서북구 공원로 196, 6층 (불당동)",더스크린천안펜타포트,9관,대전/충청/세종,2D
041-547-9070,충청남도 천안시 서북구 불당동 1289,"충청남도 천안시 서북구 공원로 196, 6층 (불당동)",더스크린천안펜타포트,6관,대전/충청/세종,2D
041-547-9070,충청남도 천안시 서북구 불당동 1289,"충청남도 천안시 서북구 공원로 196, 6층 (불당동)",더스크린천안펜타포트,11관,대전/충청/세종,2D
,경기도 평택시 평택동 185-104,경기도 평택시 평택로 51 (평택동),더스크린평택,4DX관,경기,4DX
,경기도 평택시 평택동 185-104,경기도 평택시 평택로 51 (평택동),더스크린평택,2관,경기,2D
,경기도 평택시 평택동 185-104,경기도 평택시 평택로 51 (평택동),더스크린평택,3관,경기,2D
,경기도 평택시 평택동 185-104,경기도 평택시 평택로 51 (평택동),더스크린평택,4관,경기,2D
,경기도 평택시 평택동 185-104,경기도 평택시 평택로 51 (평택동),더스크린평택,5관,경기,2D
,경기도 평택시 평택동 185-104,경기도 평택시 평택로 51 (평택동),더스크린평택,IMAX관,경기,IMAX
,경기도 평택시 평택동 185-104,경기도 평택시 평택로 51 (평택동),더스크린평택,7관,경기,2D
031-996-6593,경기도 김포시 운양동 1296-9 8층~9층,"경기도 김포시 김포한강11로 288-31, 8층~9층 (운양동)",더스크린김포운양,2관,경기,2D
031-996-6593,경기도 김포시 운양동 1296-9 8층~9층,"경기도 김포시 김포한강11로 288-31, 8층~9층 (운양동)",더스크린김포운양,3관,경기,2D
031-996-6593,경기도 김포시 운양동 1296-9 8층~9층,"경기도 김포시 김포한강11로 288-31, 8층~9층 (운양동)",더스크린김포운양,4관,경기,2D
031-996-6593,경기도 김포시 운양동 1296-9 8층~9층,"경기도 김포시 김포한강11로 288-31, 8층~9층 (운양동)",더스크린김포운양,1관,경기,2D
02-3143-6753,서울특별시 마포구 동교동 159-8,서울특별시 마포구 양화로 153 (동교동),더스크린홍대,1관,서울,2D
02-3143-6753,서울특별시 마포구 동교동 159-8,서울특별시 마포구 양화로 153 (동교동),더스크린홍대,2관,서울,2D
02-3143-6753,서울특별시 마포구 동교동 159-8,서울특별시 마포구 양화로 153 (동교동),더스크린홍대,3관,서울,2D
02-3143-6753,서울특별시 마포구 동교동 159-8,서울특별시 마포구 양화로 153 (동교동),더스크린홍대,4관,서울,2D
02-3143-6753,서울특별시 마포구 동교동 159-8,서울특별시 마포구 양화로 153 (동교동),더스크린홍대,5관,서울,2D
02-3143-6753,서울특별시 마포구 동교동 159-8,서울특별시 마포구 양화로 153 (동교동),더스크린홍대,6관,서울,2D
032-423-1004,인천광역시 미추홀구 주안동 141-8번지 12~13층,"인천광역시 미추홀구 미추홀대로 736, 12,13층 (주안동)",더스크린 남주안점,6관,인천,2D
032-427-6777,인천광역시 미추홀구 주안동 141-8번지 12~13층,"인천광역시 미추홀구 미추홀대로 736, 12,13층 (주안동)",더스크린 남주안점,7관,인천,2D
032-423-1004,인천광역시 미추홀구 주안동 141-8번지 10~11층,"인천광역시 미추홀구 미추홀대로 736, 10,11층 (주안동)",더스크린 남주안점,2관,인천,2D
032-423-1004,인천광역시 미추홀구 주안동 141-8번지 10~11층,"인천광역시 미추홀구 미추홀대로 736, 10,11층 (주안동)",더스크린 남주안점,1관,인천,2D
032-423-1004,인천광역시 미추홀구 주안동 141-8번지 10~11층,"인천광역시 미추홀구 미추홀대로 736, 10,11층 (주안동)",더스크린 남주안점,3관,인천,2D
032-423-1004,인천광역시 미추홀구 주안동 141-8번지 10~11층,"인천광역시 미추홀구 미추홀대로 736, 10,11층 (주안동)",더스크린 남주안점,4관,인천,2D
032-423-1004,인천광역시 미추홀구 주안동 141-8 12~13층,"인천광역시 미추홀구 미추홀대로 736, 12,13층 (주안동)",더스크린 남주안점,5관,인천,2D
070-7600-3869,전북특별자치도 전주시 완산구 효자동1가 434,"전북특별자치도 전주시 완산구 용머리로 45, 3층 (효자동1가)",더스크린전주효자,2관,광주/전라,2D
070-7600-3869,전북특별자치도 전주시 완산구 효자동1가 434,"전북특별자치도 전주시 완산구 용머리로 45, 3층 (효자동1가)",더스크린전주효자,3관,광주/전라,2D
070-7600-3869,전북특별자치도 전주시 완산구 효자동1가 434,"전북특별자치도 전주시 완산구 용머리로 45, 3층 (효자동1가)",더스크린전주효자,4관,광주/전라,2D
070-7600-3869,전북특별자치도 전주시 완산구 효자동1가 434,"전북특별자치도 전주시 완산구 용머리로 45, 3층 (효자동1가)",더스크린전주효자,5관,광주/전라,2D
070-7600-3869,전북특별자치도 전주시 완산구 효자동1가 434,"전북특별자치도 전주시 완산구 용머리로 45, 3층 (효자동1가)",더스크린전주효자,6관,광주/전라,2D
070-7600-3869,전북특별자치도 전주시 완산구 효자동1가 434,"전북특별자치도 전주시 완산구 용머리로 45, 3층 (효자동1가)",더스크린전주효자,7관,광주/전라,2D
061-727-6881,전라남도 순천시 해룡면 신대리 2139,전라남도 순천시 해룡면 해광로 199,더스크린순천신대,3관,광주/전라,2D
061-727-6881,전라남도 순천시 해룡면 신대리 2139,전라남도 순천시 해룡면 해광로 199,더스크린순천신대,5관,광주/전라,2D
061-727-6881,전라남도 순천시 해룡면 신대리 2139,전라남도 순천시 해룡면 해광로 199,더스크린순천신대,6관,광주/전라,2D
061-727-6881,전라남도 순천시 해룡면 신대리 2139,전라남도 순천시 해룡면 해광로 199,더스크린순천신대,7관,광주/전라,2D
061-727-6881,전라남도 순천시 해룡면 신대리 2139,전라남도 순천시 해룡면 해광로 199,더스크린순천신대,8관,광주/전라,2D
061-727-6881,전라남도 순천시 해룡면 신대리 2139,전라남도 순천시 해룡면 해광로 199,더스크린순천신대,4관,광주/전라,2D
061-727-6881,전라남도 순천시 해룡면 신대리 2139,전라남도 순천시 해룡면 해광로 199,더스크린순천신대,IMAX관,광주/전라,IMAX
061-727-6881,전라남도 순천시 해룡면 신대리 2139,전라남도 순천시 해룡면 해광로 199,더스크린순천신대,2관,광주/전라,2D
061-727-6881,전라남도 순천시 해룡면 신대리 2139,전라남도 순천시 해룡면 해광로 199,더스크린순천신대,1관,광주/전라,2D
031-8017-8743,경기도 성남시 분당구 서현동 256,"경기도 성남시 분당구 서현로180번길 19, 1층 (서현동)",더스크린 서현점,1관,경기,2D
031-8017-8743,경기도 성남시 분당구 서현동 256,"경기도 성남시 분당구 서현로180번길 19, 1층 (서현동)",더스크린 서현점,2관,경기,2D
031-8017-8743,경기도 성남시 분당구 서현동 256,"경기도 성남시 분당구 서현로180번길 19, 1층 (서현동)",더스크린 서현점,3관,경기,2D
031-8017-8743,경기도 성남시 분당구 서현동 256,"경기도 성남시 분당구 서현로180번길 19, 1층 (서현동)",더스크린 서현점,4관,경기,2D
052-990-5533,울산광역시 남구 삼산동 1569-1 업스퀘어(7층 골드클래스관),"울산광역시 남구 화합로 185, 7층 (삼산동, 업스퀘어(7층 골드클래스관))",더스크린울산삼산,11관,부산/대구/경상,2D
043-238-2834,충청북도 청주시 흥덕구 복대동 288-14 3층,"충청북도 청주시 흥덕구 대농로 47-1, 3층 (복대동)",더스크린 청주지웰시티,1관,대전/충청/세종,2D
043-238-2834,충청북도 청주시 흥덕구 복대동 288-14 3층,"충청북도 청주시 흥덕구 대농로 47-1, 3층 (복대동)",더스크린 청주지웰시티,7관,대전/충청/세종,2D
043-238-2834,충청북도 청주시 흥덕구 복대동 288-14 3층,"충청북도 청주시 흥덕구 대농로 47-1, 3층 (복대동)",더스크린 청주지웰시티,6관,대전/충청/세종,2D
043-238-2834,충청북도 청주시 흥덕구 복대동 288-14 3층,"충청북도 청주시 흥덕구 대농로 47-1, 3층 (복대동)",더스크린 청주지웰시티,5관,대전/충청/세종,2D
043-238-2834,충청북도 청주시 흥덕구 복대동 288-14 3층,"충청북도 청주시 흥덕구 대농로 47-1, 3층 (복대동)",더스크린 청주지웰시티,4관,대전/충청/세종,2D
043-238-2834,충청북도 청주시 흥덕구 복대동 288-14 3층,"충청북도 청주시 흥덕구 대농로 47-1, 3층 (복대동)",더스크린 청주지웰시티,2관,대전/충청/세종,2D
043-238-2834,충청북도 청주시 흥덕구 복대동 288-14 3층,"충청북도 청주시 흥덕구 대농로 47-1, 3층 (복대동)",더스크린 청주지웰시티,8관,대전/충청/세종,2D
043-238-2834,충청북도 청주시 흥덕구 복대동 288-14 3층,"충청북도 청주시 흥덕구 대농로 47-1, 3층 (복대동)",더스크린 청주지웰시티,3관,대전/충청/세종,2D
992-0070,경기도 김포시 걸포동 1574-3번지,"경기도 김포시 걸포로 6, 7층 (걸포동)",더스크린 김포한강,1관,경기,2D
992-0070,경기도 김포시 걸포동 1574-3번지,"경기도 김포시 걸포로 6, 7층 (걸포동)",더스크린 김포한강,4관,경기,2D
992-0070,경기도 김포시 걸포동 1574-3번지,"경기도 김포시 걸포로 6, 7층 (걸포동)",더스크린 김포한강,3관,경기,2D
992-0070,경기도 김포시 걸포동 1574-3번지,"경기도 김포시 걸포로 6, 7층 (걸포동)",더스크린 김포한강,2관,경기,2D
063-535-9150,전북특별자치도 정읍시 수성동 525-1,전북특별자치도 정읍시 중앙1길 1 (수성동),더스크린,1관,광주/전라,2D
063-535-9150,전북특별자치도 정읍시 수성동 525-1,전북특별자치도 정읍시 중앙1길 1 (수성동),더스크린,2관,광주/전라,2D
036-535-9150,전북특별자치도 정읍시 수성동 525-1,전북특별자치도 정읍시 중앙1길 1 (수성동),더스크린,3관,광주/전라,2D
063-535-9150,전북특별자치도 정읍시 수성동 525-1,전북특별자치도 정읍시 중앙1길 1 (수성동),더스크린,4관,광주/전라,2D
02-373-2995,서울특별시 서대문구 창천동 20-25,"서울특별시 서대문구 신촌로 129, 3층 (창천동, 아트레온)",더스크린신촌아트레온,2관,서울,2D
02-373-2995,서울특별시 서대문구 창천동 20-25,"서울특별시 서대문구 신촌로 129, 3층 (창천동, 아트레온)",더스크린신촌아트레온,3관,서울,2D
02-373-2995,서울특별시 서대문구 창천동 20-25,"서울특별시 서대문구 신촌로 129, 3층 (창천동, 아트레온)",더스크린신촌아트레온,4관,서울,2D
02-373-2995,서울특별시 서대문구 창천동 20-25,"서울특별시 서대문구 신촌로 129, 3층 (창천동, 아트레온)",더스크린신촌아트레온,5관,서울,2D
02-373-2995,서울특별시 서대문구 창천동 20-25,"서울특별시 서대문구 신촌로 129, 3층 (창천동, 아트레온)",더스크린신촌아트레온,6관,서울,2D
02-373-2995,서울특별시 서대문구 창천동 20-25,"서울특별시 서대문구 신촌로 129, 3층 (창천동, 아트레온)",더스크린신촌아트레온,7관,서울,2D
052-990-5533,울산광역시 남구 삼산동 1569-1 업스퀘어 6층,"울산광역시 남구 화합로 185, 6층 (삼산동, 업스퀘어)",더스크린울산삼산,3관,부산/대구/경상,2D
052-990-5533,울산광역시 남구 삼산동 1569-1 업스퀘어 6층,"울산광역시 남구 화합로 185, 6층 (삼산동, 업스퀘어)",더스크린울산삼산,1관,부산/대구/경상,2D
052-990-5533,울산광역시 남구 삼산동 1569-1 업스퀘어 6층,"울산광역시 남구 화합로 185, 6층 (삼산동, 업스퀘어)",더스크린울산삼산,2관,부산/대구/경상,2D
052-990-5533,울산광역시 남구 삼산동 1569-1 업스퀘어 6층,"울산광역시 남구 화합로 185, 6층 (삼산동, 업스퀘어)",더스크린울산삼산,4관,부산/대구/경상,2D
052-990-5533,울산광역시 남구 삼산동 1569-1 업스퀘어 6층,"울산광역시 남구 화합로 185, 6층 (삼산동, 업스퀘어)",더스크린울산삼산,5관,부산/대구/경상,2D
052-990-5533,울산광역시 남구 삼산동 1569-1 업스퀘어 8층,"울산광역시 남구 화합로 185, 8층 (삼산동, 업스퀘어)",더스크린울산삼산,6관,부산/대구/경상,2D
052-990-5533,울산광역시 남구 삼산동 1569-1 업스퀘어 8층,"울산광역시 남구 화합로 185, 8층 (삼산동, 업스퀘어)",더스크린울산삼산,7관,부산/대구/경상,2D
052-990-5533,울산광역시 남구 삼산동 1569-1 업스퀘어 8층,"울산광역시 남구 화합로 185, 8층 (삼산동, 업스퀘어)",더스크린울산삼산,8관,부산/대구/경상,2D
052-990-5533,울산광역시 남구 삼산동 1569-1 업스퀘어 8층,"울산광역시 남구 화합로 185, 8층 (삼산동, 업스퀘어)",더스크린울산삼산,9관,부산/대구/경상,2D
052-990-5533,울산광역시 남구 삼산동 1569-1 업스퀘어 8층,"울산광역시 남구 화합로 185, 8층 (삼산동, 업스퀘어)",더스크린울산삼산,10관,부산/대구/경상,2D
,서울특별시 노원구 중계동 509-2 홈플러스,"서울특별시 노원구 동일로204가길 12 (중계동, 홈플러스)",더스크린 중계,7관,서울,2D
,서울특별시 노원구 중계동 509-2 홈플러스,"서울특별시 노원구 동일로204가길 12 (중계동, 홈플러스)",더스크린 중계,1관,서울,2D
,서울특별시 노원구 중계동 509-2 홈플러스,"서울특별시 노원구 동일로204가길 12 (중계동, 홈플러스)",더스크린 중계,2관,서울,2D
,서울특별시 노원구 중계동 509-2 홈플러스,"서울특별시 노원구 동일로204가길 12 (중계동, 홈플러스)",더스크린 중계,3관,서울,2D
,서울특별시 노원구 중계동 509-2 홈플러스,"서울특별시 노원구 동일로204가길 12 (중계동, 홈플러스)",더스크린 중계,4관,서울,2D
,서울특별시 노원구 중계동 509-2 홈플러스,"서울특별시 노원구 동일로204가길 12 (중계동, 홈플러스)",더스크린 중계,5관,서울,2D
,서울특별시 노원구 중계동 509-2 홈플러스,"서울특별시 노원구 동일로204가길 12 (중계동, 홈플러스)",더스크린 중계,6관,서울,2D
053-600-2101,대구광역시 중구 동성로2가 88-22,대구광역시 중구 동성로 39 (동성로2가),더스크린대구한일,3관,부산/대구/경상,2D
053-600-2101,대구광역시 중구 동성로2가 88-22,대구광역시 중구 동성로 39 (동성로2가),더스크린대구한일,4관,부산/대구/경상,2D
053-600-2101,대구광역시 중구 동성로2가 88-22,대구광역시 중구 동성로 39 (동성로2가),더스크린대구한일,5관,부산/대구/경상,2D
053-600-2101,대구광역시 중구 동성로2가 88-22,대구광역시 중구 동성로 39 (동성로2가),더스크린대구한일,1관,부산/대구/경상,2D
053-600-2101,대구광역시 중구 동성로2가 88-22,대구광역시 중구 동성로 39 (동성로2가),더스크린대구한일,2관,부산/대구/경상,2D
070-7016-3451,경기도 고양시 일산동구 백석동 1242 고양종합터미날  5층,경기도 고양시 일산동구 중앙로 1036 (백석동),더스크린고양백석,4관,경기,2D
070-7016-3451,경기도 고양시 일산동구 백석동 1242 고양종합터미날  5층,경기도 고양시 일산동구 중앙로 1036 (백석동),더스크린고양백석,7관,경기,2D
070-7016-3451,경기도 고양시 일산동구 백석동 1242 고양종합터미날  5층,경기도 고양시 일산동구 중앙로 1036 (백석동),더스크린고양백석,6관,경기,2D
070-7016-3451,경기도 고양시 일산동구 백석동 1242 고양종합터미날  5층,경기도 고양시 일산동구 중앙로 1036 (백석동),더스크린고양백석,2관,경기,2D
070-7016-3451,경기도 고양시 일산동구 백석동 1242 고양종합터미날  5층,경기도 고양시 일산동구 중앙로 1036 (백석동),더스크린고양백석,5관,경기,2D
070-7016-3451,경기도 고양시 일산동구 백석동 1242 고양종합터미날  5층,경기도 고양시 일산동구 중앙로 1036 (백석동),더스크린고양백석,1관,경기,2D
070-7016-3451,경기도 고양시 일산동구 백석동 1242 고양종합터미날  5층,경기도 고양시 일산동구 중앙로 1036 (백석동),더스크린고양백석,3관,경기,2D
,인천광역시 연수구 동춘동 926 스퀘어원 4층,"인천광역시 연수구 청능대로 210, 4층 (동춘동, 스퀘어원)",더스크린 인천연수,1관,인천,2D
,인천광역시 연수구 동춘동 926 스퀘어원 4층,"인천광역시 연수구 청능대로 210, 4층 (동춘동, 스퀘어원)",더스크린 인천연수,2관,인천,2D
,인천광역시 연수구 동춘동 926 스퀘어원 4층,"인천광역시 연수구 청능대로 210, 4층 (동춘동, 스퀘어원)",더스크린 인천연수,3관,인천,2D
,인천광역시 연수구 동춘동 926 스퀘어원 4층,"인천광역시 연수구 청능대로 210, 4층 (동춘동, 스퀘어원)",더스크린 인천연수,4관,인천,2D
,인천광역시 연수구 동춘동 926 스퀘어원 4층,"인천광역시 연수구 청능대로 210, 4층 (동춘동, 스퀘어원)",더스크린 인천연수,5관,인천,2D
,인천광역시 연수구 동춘동 926 스퀘어원 4층,"인천광역시 연수구 청능대로 210, 4층 (동춘동, 스퀘어원)",더스크린 인천연수,6관,인천,2D
02-6137-5042,서울특별시 영등포구 여의도동 23,"서울특별시 영등포구 국제금융로 10, B3층 (여의도동, IFC)",더스크린여의도,6관,서울,2D
02-6137-5042,서울특별시 영등포구 여의도동 23,"서울특별시 영등포구 국제금융로 10, B3층 (여의도동, IFC)",더스크린여의도,3관,서울,2D
02-6137-5042,서울특별시 영등포구 여의도동 23,"서울특별시 영등포구 국제금융로 10, B3층 (여의도동, IFC)",더스크린여의도,1관,서울,2D
02-6137-5042,서울특별시 영등포구 여의도동 23,"서울특별시 영등포구 국제금융로 10, B3층 (여의도동, IFC)",더스크린여의도,7관,서울,CINE
02-6137-5042,서울특별시 영등포구 여의도동 23,"서울특별시 영등포구 국제금융로 10, B3층 (여의도동, IFC)",더스크린여의도,9관,서울,2D
02-6137-5042,서울특별시 영등포구 여의도동 23,"서울특별시 영등포구 국제금융로 10, B3층 (여의도동, IFC)",더스크린여의도,2관,서울,2D
031-8082-0930,경기도 의정부시 의정부동 168-54 신세계백화점 10층,"경기도 의정부시 평화로 525 (의정부동, 신세계백화점 10층)",더스크린 의정부,2관,경기,2D
031-8082-0930,경기도 의정부시 의정부동 168-54 신세계백화점 10층,"경기도 의정부시 평화로 525 (의정부동, 신세계백화점 10층)",더스크린 의정부,3관,경기,2D
031-8082-0930,경기도 의정부시 의정부동 168-54 신세계백화점 10층,"경기도 의정부시 평화로 525 (의정부동, 신세계백화점 10층)",더스크린 의정부,4관,경기,2D
031-8082-0930,경기도 의정부시 의정부동 168-54 신세계백화점 10층,"경기도 의정부시 평화로 525 (의정부동, 신세계백화점 10층)",더스크린 의정부,5관,경기,2D
031-8082-0930,경기도 의정부시 의정부동 168-54 신세계백화점 10층,"경기도 의정부시 평화로 525 (의정부동, 신세계백화점 10층)",더스크린 의정부,6관,경기,2D
031-8082-0930,경기도 의정부시 의정부동 168-54 신세계백화점 10층,"경기도 의정부시 평화로 525 (의정부동, 신세계백화점 10층)",더스크린 의정부,7관,경기,2D
031-8082-0930,경기도 의정부시 의정부동 168-54 신세계백화점 10층,"경기도 의정부시 평화로 525 (의정부동, 신세계백화점 10층)",더스크린 의정부,8관,경기,2D
031-8082-0930,경기도 의정부시 의정부동 168-54 신세계백화점 10층,"경기도 의정부시 평화로 525 (의정부동, 신세계백화점 10층)",더스크린 의정부,1관,경기,2D
,서울특별시 강북구 수유동 168-12,"서울특별시 강북구 도봉로 399, 4층 (수유동)",더스크린 수유,1관,서울,2D
,서울특별시 강북구 수유동 168-12,"서울특별시 강북구 도봉로 399, 8층 (수유동)",더스크린 수유,9관,서울,2D
,서울특별시 강북구 수유동 168-12,"서울특별시 강북구 도봉로 399, 8층 (수유동)",더스크린 수유,8관,서울,2D
,서울특별시 강북구 수유동 168-12,"서울특별시 강북구 도봉로 399, 8층 (수유동)",더스크린 수유,7관,서울,2D
,서울특별시 강북구 수유동 168-12,"서울특별시 강북구 도봉로 399, 4층 (수유동)",더스크린  수유,2관,서울,2D
,서울특별시 강북구 수유동 168-12,"서울특별시 강북구 도봉로 399, 4층 (수유동)",더스크린 수유,3관,서울,2D
,서울특별시 강북구 수유동 168-12,"서울특별시 강북구 도봉로 399, 6층 (수유동)",더스크린 수유,6관,서울,2D
,서울특별시 강북구 수유동 168-12,"서울특별시 강북구 도봉로 399, 6층 (수유동)",더스크린 수유,5관,서울,2D
,서울특별시 강북구 수유동 168-12,"서울특별시 강북구 도봉로 399, 6층 (수유동)",더스크린 수유,4관,서울,2D
042-623-6181,대전광역시 동구 용전동 68-2 대전복합터미널 동관 3~4층,"대전광역시 동구 동서대로1695번길 30 (용전동, 대전복합터미널 동관 3~4층)",더스크린대전터미널,1관,대전/충청/세종,2D
042-623-6181,대전광역시 동구 용전동 68-2 대전복합터미널 동관 3~4층,"대전광역시 동구 동서대로1695번길 30 (용전동, 대전복합터미널 동관 3~4층)",더스크린대전터미널,IMAX관,대전/충청/세종,IMAX
042-623-6181,대전광역시 동구 용전동 68-2 대전복합터미널 동관 3~4층,"대전광역시 동구 동서대로1695번길 30 (용전동, 대전복합터미널 동관 3~4층)",더스크린 대전터미널,4DX관,대전/충청/세종,4DX
042-623-6181,대전광역시 동구 용전동 68-2 대전복합터미널 동관 3~4층,"대전광역시 동구 동서대로1695번길 30 (용전동, 대전복합터미널 동관 3~4층)",더스크린대전터미널,SCREENX관,대전/충청/세종,SCREENX
042-623-6181,대전광역시 동구 용전동 68-2 대전복합터미널 동관 3~4층,"대전광역시 동구 동서대로1695번길 30 (용전동, 대전복합터미널 동관 3~4층)",더스크린대전터미널,5관,대전/충청/세종,2D
042-623-6181,대전광역시 동구 용전동 68-2 대전복합터미널 동관 3~4층,"대전광역시 동구 동서대로1695번길 30 (용전동, 대전복합터미널 동관 3~4층)",더스크린대전터미널,6관,대전/충청/세종,2D
042-623-6181,대전광역시 동구 용전동 68-2 대전복합터미널 동관 3~4층,"대전광역시 동구 동서대로1695번길 30 (용전동, 대전복합터미널 동관 3~4층)",더스크린대전터미널,7관,대전/충청/세종,2D
1544-1122,충청남도 홍성군 홍성읍 고암리 1042,충청남도 홍성군 홍성읍 조양로247번길 9,더스크린 홍성,1관,대전/충청/세종,2D
1544-1122,충청남도 홍성군 홍성읍 고암리 1042,충청남도 홍성군 홍성읍 조양로247번길 9,더스크린 홍성,2관,대전/충청/세종,2D
1544-1122,충청남도 홍성군 홍성읍 고암리 1042,충청남도 홍성군 홍성읍 조양로247번길 9,더스크린 홍성,3관,대전/충청/세종,2D
1544-1122,충청남도 홍성군 홍성읍 고암리 1042,충청남도 홍성군 홍성읍 조양로247번길 9,더스크린 홍성,4관,대전/충청/세종,2D
053-222-6600,대구광역시 수성구 대흥동 504 B2F,대구광역시 수성구 유니버시아드로 140 (대흥동),더스크린대구스타디움,10관,부산/대구/경상,2D
053-428-9368,대구광역시 중구 계산동2가 200,대구광역시 중구 달구벌대로 2077 (계산동2가),더스크린대구현대,1관,부산/대구/경상,2D
053-428-9368,대구광역시 중구 계산동2가 200,대구광역시 중구 달구벌대로 2077 (계산동2가),더스크린대구현대,2관,부산/대구/경상,2D
053-428-9368,대구광역시 중구 계산동2가 200,대구광역시 중구 달구벌대로 2077 (계산동2가),더스크린대구현대,3관,부산/대구/경상,2D
053-428-9368,대구광역시 중구 계산동2가 200,대구광역시 중구 달구벌대로 2077 (계산동2가),더스크린대구현대,4관,부산/대구/경상,2D
053-428-9368,대구광역시 중구 계산동2가 200,대구광역시 중구 달구벌대로 2077 (계산동2가),더스크린대구현대,5관,부산/대구/경상,2D
053-428-9368,대구광역시 중구 계산동2가 200,대구광역시 중구 달구벌대로 2077 (계산동2가),더스크린대구현대,6관,부산/대구/경상,2D
02-371-6505,광주광역시 서구 치평동 1218-1,광주광역시 서구 시청로 67 (치평동),더스크린광주상무,1관,광주/전라,2D
02-371-6505,광주광역시 서구 치평동 1218-1,광주광역시 서구 시청로 67 (치평동),더스크린광주상무,3관,광주/전라,2D
02-371-6505,광주광역시 서구 치평동 1218-1,광주광역시 서구 시청로 67 (치평동),더스크린광주상무,4관,광주/전라,2D
02-371-6505,광주광역시 서구 치평동 1218-1,광주광역시 서구 시청로 67 (치평동),더스크린광주상무,5관,광주/전라,2D
02-371-6505,광주광역시 서구 치평동 1218-1,광주광역시 서구 시청로 67 (치평동),더스크린광주상무,6관,광주/전라,2D
02-371-6505,광주광역시 서구 치평동 1218-1,광주광역시 서구 시청로 67 (치평동),더스크린광주상무,7관,광주/전라,2D
02-371-6505,광주광역시 서구 치평동 1218-1,광주광역시 서구 시청로 67 (치평동),더스크린광주상무,8관,광주/전라,2D
02-371-6505,광주광역시 서구 치평동 1218-1,광주광역시 서구 시청로 67 (치평동),더스크린광주상무,9관,광주/전라,2D
02-371-6505,광주광역시 서구 치평동 1218-1,광주광역시 서구 시청로 67 (치평동),더스크린광주상무,10관,광주/전라,2D
02-371-6505,광주광역시 서구 치평동 1218-1,광주광역시 서구 시청로 67 (치평동),더스크린광주상무,2관,광주/전라,2D
,경기도 화성시 반송동 96 메타폴리스 A동,"경기도 화성시 동탄중앙로 220, A동 (반송동,메타폴리스)",더스크린 동탄,4관,경기,2D
,경기도 화성시 반송동 96 메타폴리스 A동,"경기도 화성시 동탄중앙로 220, A동 (반송동,메타폴리스)",더스크린 동탄,5관,경기,2D
,경기도 화성시 반송동 96 메타폴리스 A동,"경기도 화성시 동탄중앙로 220, A동 (반송동,메타폴리스)",더스크린동탄,6관,경기,2D
,경기도 화성시 반송동 96 메타폴리스 A동,"경기도 화성시 동탄중앙로 220, A동 (반송동,메타폴리스)",더스크린 동탄,IMAX관,경기,IMAX
,경기도 화성시 반송동 96 메타폴리스 A동,"경기도 화성시 동탄중앙로 220, A동 (반송동,메타폴리스)",더스크린 동탄,8관,경기,2D
03180155022,경기도 화성시 반송동 96 메타폴리스 A동,"경기도 화성시 동탄중앙로 220, A동 (반송동,메타폴리스)",더스크린 동탄,1관,경기,2D
,경기도 화성시 반송동 96 메타폴리스 A동,"경기도 화성시 동탄중앙로 220, A동 (반송동,메타폴리스)",더스크린 동탄,2관,경기,2D
,경기도 화성시 반송동 96 메타폴리스 A동,"경기도 화성시 동탄중앙로 220, A동 (반송동,메타폴리스)",더스크린동탄,3관,경기,2D
032-429-9255,인천광역시 남동구 논현동 646-2 4층,"인천광역시 남동구 논현로26번길 34, 4층 (논현동)",더스크린,인천논현1관,인천,2D
032-429-9255,인천광역시 남동구 논현동 646-2 4층,"인천광역시 남동구 논현로26번길 34, 4층 (논현동)",더스크린,인천논현2관,인천,2D
032-429-9255,인천광역시 남동구 논현동 646-2 4층,"인천광역시 남동구 논현로26번길 34, 4층 (논현동)",더스크린,인천논현3관,인천,2D
032-429-9255,인천광역시 남동구 논현동 646-2 4층,"인천광역시 남동구 논현로26번길 34, 4층 (논현동)",더스크린,인천논현4관,인천,2D
032-429-9255,인천광역시 남동구 논현동 646-2 4층,"인천광역시 남동구 논현로26번길 34, 4층 (논현동)",더스크린,인천논현5관,인천,2D
823-0000,경상북도 안동시 용상동 1426-1번지,경상북도 안동시 경동로 841 (용상동),더스크린 안동,2관,부산/대구/경상,2D
823-0000,경상북도 안동시 용상동 1426-1번지,경상북도 안동시 경동로 841 (용상동),더스크린 안동,1관,부산/대구/경상,2D
823-0000,경상북도 안동시 용상동 1426-1번지,경상북도 안동시 경동로 841 (용상동),더스크린 안동,4관,부산/대구/경상,2D
823-0000,경상북도 안동시 용상동 1426-1번지,경상북도 안동시 경동로 841 (용상동),더스크린 안동,3관,부산/대구/경상,2D
823-0000,경상북도 안동시 용상동 1426-1번지,경상북도 안동시 경동로 841 (용상동),더스크린 안동,5관,부산/대구/경상,2D
823-0000,경상북도 안동시 용상동 1426-1번지,경상북도 안동시 경동로 841 (용상동),더스크린 안동,6관,부산/대구/경상,2D
033-641-2746,강원특별자치도 강릉시 옥천동 189 7층,강원특별자치도 강릉시 경강로 2120 (옥천동),(주) 더스크린 강릉지점,1관,강원,2D
033-655-7288,강원특별자치도 강릉시 옥천동 189 7층,강원특별자치도 강릉시 경강로 2120 (옥천동),(주) 더스크린 강릉지점,2관,강원,2D
033-655-7288,강원특별자치도 강릉시 옥천동 189 7층,강원특별자치도 강릉시 경강로 2120 (옥천동),(주) 더스크린 강릉지점,3관,강원,2D
033-655-7288,강원특별자치도 강릉시 옥천동 189 7층,강원특별자치도 강릉시 경강로 2120 (옥천동),(주) 더스크린 강릉지점,4관,강원,2D
033-655-7288,강원특별자치도 강릉시 옥천동 189 7층,강원특별자치도 강릉시 경강로 2120 (옥천동),(주) 더스크린 강릉지점,5관,강원,2D
033-655-7288,강원특별자치도 강릉시 옥천동 189 7층,강원특별자치도 강릉시 경강로 2120 (옥천동),(주) 더스크린 강릉지점,6관,강원,2D
033-655-7288,강원특별자치도 강릉시 옥천동 189 7층,강원특별자치도 강릉시 경강로 2120 (옥천동),(주) 더스크린 강릉지점,7관,강원,2D
033-655-7288,강원특별자치도 강릉시 옥천동 189 7층,강원특별자치도 강릉시 경강로 2120 (옥천동),(주) 더스크린 강릉지점,8관,강원,2D
031-337-3421,경기도 용인시 처인구 김량장동 301-3번지 시네마일번가 5~8층,"경기도 용인시 처인구 금령로 86 (김량장동, 시네마일번가)",더스크린 용인,5관,경기,2D
031-337-3421,경기도 용인시 처인구 김량장동 301-3번지 시네마일번가 5~8층,"경기도 용인시 처인구 금령로 86 (김량장동,시네마일번가 5~8층)",더스크린 용인,6관,경기,2D
031-337-3421,경기도 용인시 처인구 김량장동 301-3번지 시네마일번가 5~8층,"경기도 용인시 처인구 금령로 86 (김량장동,시네마일번가 5~8층)",더스크린 용인,7관,경기,2D
031-337-3421,경기도 용인시 처인구 김량장동 301-3번지 시네마일번가 5~8층,"경기도 용인시 처인구 금령로 86 (김량장동,시네마일번가 5~8층)",더스크린 용인,8관,경기,2D
031-337-3421,경기도 용인시 처인구 김량장동 301-3번지 시네마일번가 5~8층,"경기도 용인시 처인구 금령로 86 (김량장동, 시네마일번가)",더스크린 용인,2관,경기,2D
031-337-3421,경기도 용인시 처인구 김량장동 301-3번지 시네마일번가 5~8층,"경기도 용인시 처인구 금령로 86 (김량장동, 시네마일번가 5~8층)",더스크린 용인,3관,경기,2D
031-337-3421,경기도 용인시 처인구 김량장동 301-3번지 시네마일번가 5~8층,"경기도 용인시 처인구 금령로 86 (김량장동, 시네마일번가)",더스크린 용인,4관,경기,2D
031-337-3421,경기도 용인시 처인구 김량장동 301-3번지 시네마일번가 5~8층,"경기도 용인시 처인구 금령로 86, 5~8층 (김량장동, 시네마일번가)",더스크린 용인,1관,경기,2D
2157-1100,서울특별시 송파구 문정동 516 가든파이브라이프영관 10층,"서울특별시 송파구 충민로 66 (문정동, 가든파이브라이프영관 10층)",더스크린 송파,6관,서울,2D
2157-1100,서울특별시 송파구 문정동 516 가든파이브라이프영관10층,"서울특별시 송파구 충민로 66 (문정동, 가든파이브라이프영관 10층)",더스크린 송파,4관,서울,2D
2157-1100,서울특별시 송파구 문정동 516 가든파이브라이프영관 10층,"서울특별시 송파구 충민로 66 (문정동, 가든파이브라이프영관 10층)",더스크린 송파,3관,서울,2D
2157-1100,서울특별시 송파구 문정동 516 가든파이브라이프영관 10층,"서울특별시 송파구 충민로 66 (문정동, 가든파이브라이프영관 10층)",더스크린 송파,1관,서울,2D
2157-1100,서울특별시 송파구 문정동 516 가든파이브라이프영관 10층,"서울특별시 송파구 충민로 66 (문정동, 가든파이브라이프영관 10층)",더스크린 송파,2관,서울,2D
042-273-7400,대전광역시 동구 가오동 557,대전광역시 동구 은어송로 72 (가오동),더스크린대전가오,5관,대전/충청/세종,2D
042-273-7400,대전광역시 동구 가오동 557,대전광역시 동구 은어송로 72 (가오동),더스크린대전가오,4관,대전/충청/세종,2D
042-273-7400,대전광역시 동구 가오동 557,대전광역시 동구 은어송로 72 (가오동),더스크린대전가오,3관,대전/충청/세종,2D
042-273-7400,대전광역시 동구 가오동 557,대전광역시 동구 은어송로 72 (가오동),더스크린대전가오,7관,대전/충청/세종,2D
042-273-7400,대전광역시 동구 가오동 557,대전광역시 동구 은어송로 72 (가오동),더스크린대전가오,2관,대전/충청/세종,2D
042-273-7400,대전광역시 동구 가오동 557,대전광역시 동구 은어송로 72 (가오동),더스크린대전가오,6관,대전/충청/세종,2D
042-273-7400,대전광역시 동구 가오동 557,대전광역시 동구 은어송로 72 (가오동),더스크린대전가오,1관,대전/충청/세종,2D
051-745-2883,부산광역시 해운대구 우동 1495 신세계백화점 8층,"부산광역시 해운대구 센텀남대로 35 (우동,신세계백화점 8층)",더스크린 센텀시티,5관,부산/대구/경상,2D
051-745-2883,부산광역시 해운대구 우동 1495 신세계백화점 8층,"부산광역시 해운대구 센텀남대로 35 (우동,신세계백화점 8층)",더스크린 센텀시티,6관,부산/대구/경상,2D
051-745-2883,부산광역시 해운대구 우동 1495 신세계백화점 8층,"부산광역시 해운대구 센텀남대로 35 (우동,신세계백화점 8층)",더스크린 센텀시티,7관,부산/대구/경상,2D
051-745-2883,부산광역시 해운대구 우동 1495 신세계백화점 8층,"부산광역시 해운대구 센텀남대로 35 (우동,신세계백화점 8층)",더스크린 센텀시티 CDC 스트레스리스,시네마관,부산/대구/경상,2D
051-745-2883,부산광역시 해운대구 우동 1495 신세계백화점 8층,"부산광역시 해운대구 센텀남대로 35 (우동,신세계백화점 8층)",더스크린 센텀시티 CDC,B관,부산/대구/경상,2D
051-745-2883,부산광역시 해운대구 우동 1495 신세계백화점 8층,"부산광역시 해운대구 센텀남대로 35 (우동,신세계백화점 8층)",더스크린센텀시티,4DX관,부산/대구/경상,4DX
051-745-2883,부산광역시 해운대구 우동 1495 신세계백화점 8층,"부산광역시 해운대구 센텀남대로 35 (우동,신세계백화점 8층)",더스크린 센텀시티,2관,부산/대구/경상,2D
051-745-2883,부산광역시 해운대구 우동 1495 신세계백화점 8층,"부산광역시 해운대구 센텀남대로 35 (우동,신세계백화점 8층)",더스크린 센텀시티,3관,부산/대구/경상,2D
051-745-2883,부산광역시 해운대구 우동 1495 신세계백화점 8층,"부산광역시 해운대구 센텀남대로 35 (우동,신세계백화점 8층)",더스크린 센텀시티,4관,부산/대구/경상,2D
,서울특별시 성동구 행당동 168-151 왕십리민자역사,"서울특별시 성동구 왕십리광장로 17, 왕십리민자역사 5층 (행당동)",더스크린 왕십리,9관,서울,2D
,서울특별시 성동구 행당동 168-151 왕십리민자역사,"서울특별시 성동구 왕십리광장로 17, 왕십리민자역사 5층 (행당동)",더스크린 왕십리,5관,서울,2D
,서울특별시 성동구 행당동 168-151 왕십리민자역사,"서울특별시 성동구 왕십리광장로 17, 왕십리민자역사 5층 (행당동)",더스크린 왕십리,3관,서울,2D
,서울특별시 성동구 행당동 168-151 왕십리민자역사,"서울특별시 성동구 왕십리광장로 17, 왕십리민자역사 5층 (행당동)",더스크린 왕십리,4관,서울,2D
,서울특별시 성동구 행당동 168-151 왕십리민자역사,"서울특별시 성동구 왕십리광장로 17, 왕십리민자역사 5층 (행당동)",더스크린 왕십리,6관,서울,2D
,서울특별시 성동구 행당동 168-151 왕십리민자역사,"서울특별시 성동구 왕십리광장로 17, 왕십리민자역사 5층 (행당동)",더스크린 왕십리,7관,서울,2D
,서울특별시 성동구 행당동 168-151 왕십리민자역사,"서울특별시 성동구 왕십리광장로 17, 왕십리민자역사 5층 (행당동)",더스크린 왕십리,1관,서울,2D
,서울특별시 성동구 행당동 168-151 왕십리민자역사,"서울특별시 성동구 왕십리광장로 17, 왕십리민자역사 5층 (행당동)",더스크린 왕십리,2관,서울,2D
,서울특별시 성동구 행당동 168-151 왕십리민자역사,"서울특별시 성동구 왕십리광장로 17, 왕십리민자역사 5층 (행당동)",더스크린 왕십리,10관,서울,2D
,서울특별시 성동구 행당동 168-151 왕십리민자역사,"서울특별시 성동구 왕십리광장로 17, 왕십리민자역사 5층 (행당동)",더스크린 왕십리,8관,서울,2D
02-3415-6781,서울특별시 성북구 동선동1가 1-2,"서울특별시 성북구 동소문로 106, 11층 (동선동1가)",더스크린 성신여대입구,2관,서울,2D
02-3415-6781,서울특별시 성북구 동선동1가 1-2 유타,"서울특별시 성북구 동소문로 106, 11층 (동선동1가)",더스크린 성신여대입구,3관,서울,2D
055-600-5400,"경상남도 창원시 성산구 대원동 121 W224,W306,W401","경상남도 창원시 성산구 원이대로 320 (대원동,  W224,W306,W401)",더스크린창원더시티,1관,부산/대구/경상,2D
055-600-5400,"경상남도 창원시 성산구 대원동 121 W224,W306,W401","경상남도 창원시 성산구 원이대로 320 (대원동, W224,W306,W401)",더스크린창원더시티,2관,부산/대구/경상,2D
,"경상남도 창원시 성산구 대원동 121 W224,W306,W401","경상남도 창원시 성산구 원이대로 320 (대원동, W224,W306,W401)",더스크린창원더시티,3관,부산/대구/경상,2D
,"경상남도 창원시 성산구 대원동 121 W224,W306,401","경상남도 창원시 성산구 원이대로 320 (대원동, W224,W306,W401)",더스크린창원더시티,4관,부산/대구/경상,2D
,"경상남도 창원시 성산구 대원동 121 W224,W306,W401","경상남도 창원시 성산구 원이대로 320 (대원동, W224,W306,W401)",더스크린창원더시티,5관,부산/대구/경상,2D
,"경상남도 창원시 성산구 대원동 121 W224,W306,W401","경상남도 창원시 성산구 원이대로 320 (대원동, W224,W306,W401)",더스크린창원더시티,6관,부산/대구/경상,2D
031-436-4574,경기도 안산시 단원구 고잔동 725-1,경기도 안산시 단원구 광덕대로 194 (고잔동),더스크린안산,5관,경기,2D
031-436-4574,경기도 안산시 단원구 고잔동 725-1,경기도 안산시 단원구 광덕대로 194 (고잔동),더스크린안산,6관,경기,2D
031-436-4574,경기도 안산시 단원구 고잔동 725-1,경기도 안산시 단원구 광덕대로 194 (고잔동),더스크린안산,7관,경기,2D
031-436-4574,경기도 안산시 단원구 고잔동 725-1,경기도 안산시 단원구 광덕대로 194 (고잔동),더스크린안산,8관,경기,2D
031-436-4574,경기도 안산시 단원구 고잔동 725-1,경기도 안산시 단원구 광덕대로 194 (고잔동),더스크린안산,1관,경기,2D
031-436-4574,경기도 안산시 단원구 고잔동 725-1,경기도 안산시 단원구 광덕대로 194 (고잔동),더스크린안산,3관,경기,2D
031-436-4574,경기도 안산시 단원구 고잔동 725-1,경기도 안산시 단원구 광덕대로 194 (고잔동),더스크린안산,2관,경기,2D
033-269-7800,강원특별자치도 춘천시 퇴계동 1017 7층,강원특별자치도 춘천시 지석로 80 (퇴계동),더스크린,춘천3관,강원,2D
033-269-7800,강원특별자치도 춘천시 퇴계동 1017 7층,강원특별자치도 춘천시 지석로 80 (퇴계동),더스크린,춘천4관,강원,2D
033-269-7800,강원특별자치도 춘천시 퇴계동 1017 7층,강원특별자치도 춘천시 지석로 80 (퇴계동),더스크린,춘천5관,강원,2D
033-269-7800,강원특별자치도 춘천시 퇴계동 1017 7층,강원특별자치도 춘천시 지석로 80 (퇴계동),더스크린,춘천6관,강원,2D
033-269-7800,강원특별자치도 춘천시 퇴계동 1017 7층,강원특별자치도 춘천시 지석로 80 (퇴계동),더스크린,춘천7관,강원,2D
033-269-7800,강원특별자치도 춘천시 퇴계동 1017 7층,강원특별자치도 춘천시 지석로 80 (퇴계동),더스크린,춘천8관,강원,2D
033-269-7800,강원특별자치도 춘천시 퇴계동 1017 7층,강원특별자치도 춘천시 지석로 80 (퇴계동),더스크린,춘천10관,강원,2D
033-269-7800,강원특별자치도 춘천시 퇴계동 1017 7층,강원특별자치도 춘천시 지석로 80 (퇴계동),더스크린,춘천11관,강원,2D
033-269-7800,강원특별자치도 춘천시 퇴계동 1017 7층,강원특별자치도 춘천시 지석로 80 (퇴계동),더스크린,춘천12관,강원,2D
,경기도 시흥시 대야동 568-1 7층,"경기도 시흥시 복지로 90 (대야동,7층)",더스크린 시흥,1관,경기,2D
031-404-0186,경기도 시흥시 대야동 568-1 7층,"경기도 시흥시 복지로 90 (대야동,7층)",더스크린 시흥,2관,경기,2D
031-404-0186,경기도 시흥시 대야동 568-1 7층,"경기도 시흥시 복지로 90 (대야동,7층)",더스크린 시흥,3관,경기,2D
031-404-0186,경기도 시흥시 대야동 568-1 7층,"경기도 시흥시 복지로 90 (대야동,7층)",더스크린 시흥,4관,경기,2D
051-626-0488,부산광역시 남구 대연동 73-15 스파크 6층,"부산광역시 남구 수영로 305, 6층 (대연동, 스파크)",더스크린대연,2관,부산/대구/경상,2D
051-626-0488,부산광역시 남구 대연동 73-15 스파크6층,"부산광역시 남구 수영로 305, 6층 (대연동, 스파크)",더스크린대연,3관,부산/대구/경상,2D
051-626-0488,부산광역시 남구 대연동 73-15 스파크 6층,"부산광역시 남구 수영로 305, 6층 (대연동, 스파크)",더스크린대연,1관,부산/대구/경상,2D
051-626-0488,부산광역시 남구 대연동 73-15 스파크 6층,"부산광역시 남구 수영로 305, 6층 (대연동, 스파크)",더스크린대연,4관,부산/대구/경상,2D
051-626-0488,부산광역시 남구 대연동 73-15 스파크,"부산광역시 남구 수영로 305, 스파크 8층 (대연동)",더스크린대연,5관,부산/대구/경상,2D
051-626-0488,부산광역시 남구 대연동 73-15 스파크 8층,"부산광역시 남구 수영로 305, 8층 (대연동, 스파크)",더스크린대연,6관,부산/대구/경상,2D
051-805-0416,부산광역시 남구 대연동 73-15 스파크 8층,"부산광역시 남구 수영로 305, 8층 (대연동, 스파크)",더스크린대연,7관,부산/대구/경상,2D
051-805-0416,부산광역시 남구 대연동 73-15 스파크 8층,"부산광역시 남구 수영로 305, 8층 (대연동, 스파크)",더스크린대연,8관,부산/대구/경상,2D
032-624-7804,"경기도 부천시 원미구 상동 539-1 소풍 6,7,8층","경기도 부천시 원미구 송내대로 239, 6,7,8층 (상동, 부천터미널소풍)",더스크린소풍,IMAX관,경기,IMAX
032-624-7804,"경기도 부천시 원미구 상동 539-1 소풍 6,7,8층","경기도 부천시 원미구 송내대로 239, 6,7,8층 (상동, 부천터미널소풍)",더스크린소풍,2관,경기,2D
032-624-7804,"경기도 부천시 원미구 상동 539-1 소풍 6,7,8층","경기도 부천시 원미구 송내대로 239, 6,7,8층 (상동, 부천터미널소풍)",더스크린소풍,3관,경기,2D
032-624-7804,"경기도 부천시 원미구 상동 539-1 소풍 6,7,8층","경기도 부천시 원미구 송내대로 239, 6,7,8층 (상동, 부천터미널소풍)",더스크린소풍,4관,경기,2D
032-624-7804,"경기도 부천시 원미구 상동 539-1 소풍 6,7,8층","경기도 부천시 원미구 송내대로 239, 6,7,8층 (상동, 부천터미널소풍)",더스크린소풍,5관,경기,2D
032-624-7804,"경기도 부천시 원미구 상동 539-1 소풍 6,7,8층","경기도 부천시 원미구 송내대로 239, 6,7,8층 (상동, 부천터미널소풍)",더스크린소풍,6관,경기,2D
032-624-7804,"경기도 부천시 원미구 상동 539-1 소풍 6,7,8층","경기도 부천시 원미구 송내대로 239, 6,7,8층 (상동, 부천터미널소풍)",더스크린소풍,8관,경기,2D
032-624-7804,"경기도 부천시 원미구 상동 539-1 소풍 6,7,8층","경기도 부천시 원미구 송내대로 239, 6,7,8층 (상동, 부천터미널소풍)",더스크린소풍,9관,경기,2D
032-624-7804,"경기도 부천시 원미구 상동 539-1 소풍 6,7,8층","경기도 부천시 원미구 송내대로 239, 6,7,8층 (상동, 부천터미널소풍)",더스크린소풍,10관,경기,2D
032-624-7804,"경기도 부천시 원미구 상동 539-1 소풍 6,7,8층","경기도 부천시 원미구 송내대로 239, 6,7,8층 (상동, 부천터미널소풍)",더스크린소풍,11관,경기,2D
378-5661,경기도 오산시 원동 763-21번지,경기도 오산시 원동로37번길 46 (원동),더스크린 오산,3관,경기,2D
378-5661,경기도 오산시 원동 763-21번지,경기도 오산시 원동로37번길 46 (원동),더스크린 오산,4관,경기,2D
378-5661,경기도 오산시 원동 763-21번지,경기도 오산시 원동로37번길 46 (원동),더스크린 오산,5관,경기,2D
378-5661,경기도 오산시 원동 763-21번지,경기도 오산시 원동로37번길 46 (원동),더스크린 오산,6관,경기,2D
378-5661,경기도 오산시 원동 763-21번지,경기도 오산시 원동로37번길 46 (원동),더스크린 오산,1관,경기,2D
378-5661,경기도 오산시 원동 763-21번지,경기도 오산시 원동로37번길 46 (원동),더스크린 오산,2관,경기,2D
646-1503,경상남도 통영시 북신동 698-1 월드지브이존,"경상남도 통영시 원문로 27, 월드지브이존 6층 (북신동)",더스크린통영,1관,부산/대구/경상,2D
055-646-1503,경상남도 통영시 북신동 698-1 월드지브이존,"경상남도 통영시 원문로 27, 월드지브이존 6층 (북신동)",더스크린통영,2관,부산/대구/경상,2D
646-1503,경상남도 통영시 북신동 698-1 월드지브이존,"경상남도 통영시 원문로 27, 월드지브이존 6층 (북신동)",더스크린통영,3관,부산/대구/경상,2D
646-1503,경상남도 통영시 북신동 698-1 월드지브이존,"경상남도 통영시 원문로 27, 월드지브이존 8층 (북신동)",더스크린통영,4관,부산/대구/경상,2D
646-1503,경상남도 통영시 북신동 698-1 월드지브이존,"경상남도 통영시 원문로 27, 월드지브이존 8층 (북신동)",더스크린통영,5관,부산/대구/경상,2D
646-1503,경상남도 통영시 북신동 698-1 월드지브이존,"경상남도 통영시 원문로 27, 월드지브이존 8층 (북신동)",더스크린통영,6관,부산/대구/경상,2D
041-523-0448,충청남도 천안시 동남구 대흥동 102-10 오렌지씨네스타 5층,"충청남도 천안시 동남구 명동길 47 (대흥동,오렌지씨네스타 5층)",더스크린천안,8관,대전/충청/세종,2D
041-523-0448,충청남도 천안시 동남구 대흥동 102-10 오렌지씨네스타 5층,"충청남도 천안시 동남구 명동길 47 (대흥동,오렌지씨네스타 5층)",더스크린천안,1관,대전/충청/세종,2D
041-523-0448,충청남도 천안시 동남구 대흥동 102-10 오렌지씨네스타 5층,"충청남도 천안시 동남구 명동길 47 (대흥동,오렌지씨네스타 5층)",더스크린천안,2관,대전/충청/세종,2D
041-523-0448,충청남도 천안시 동남구 대흥동 102-10 오렌지씨네스타 5층,"충청남도 천안시 동남구 명동길 47 (대흥동,오렌지씨네스타 5층)",더스크린천안,3관,대전/충청/세종,2D
041-523-0448,충청남도 천안시 동남구 대흥동 102-10 오렌지씨네스타 5층,"충청남도 천안시 동남구 명동길 47 (대흥동,오렌지씨네스타 5층)",더스크린천안,4관,대전/충청/세종,2D
041-523-0448,충청남도 천안시 동남구 대흥동 102-10 오렌지씨네스타 5층,"충청남도 천안시 동남구 명동길 47 (대흥동,오렌지씨네스타 5층)",더스크린천안,5관,대전/충청/세종,2D
041-523-0448,충청남도 천안시 동남구 대흥동 102-10 오렌지씨네스타 5층,"충청남도 천안시 동남구 명동길 47 (대흥동,오렌지씨네스타 5층)",더스크린천안,6관,대전/충청/세종,2D
041-523-0448,충청남도 천안시 동남구 대흥동 102-10 오렌지씨네스타 5층,"충청남도 천안시 동남구 명동길 47 (대흥동,오렌지씨네스타 5층)",더스크린천안,7관,대전/충청/세종,2D
,경기도 용인시 수지구 죽전동 1285 (주)신세계 사우스시티,경기도 용인시 수지구 포은대로 536 (주)신세계 사우스시티 9층 (죽전동),더스크린신세계경기 PREMIUM,4관,경기,2D
,경기도 용인시 수지구 죽전동 1285 (주)신세계 사우스시티,경기도 용인시 수지구 포은대로 536 (주)신세계 사우스시티 9층 (죽전동),더스크린신세계경기 PREMIUM,5관,경기,2D
539-9407,서울특별시 강남구 역삼동 814-6 스타플렉스 8층,"서울특별시 강남구 강남대로 438 (역삼동,스타플렉스 8층)",더스크린,강남3관,서울,2D
539-9407,서울특별시 강남구 역삼동 814-6 스타플랙스 10층,"서울특별시 강남구 강남대로 438 (역삼동,스타플랙스 10층)",더스크린,강남4관,서울,2D
539-9407,서울특별시 강남구 역삼동 814-6 스타플랙스 10층,"서울특별시 강남구 강남대로 438 (역삼동,스타플랙스 10층)",더스크린,강남5관,서울,2D
539-9407,서울특별시 강남구 역삼동 814-6 스타플렉스 10층,"서울특별시 강남구 강남대로 438 (역삼동,스타플렉스 10층)",더스크린,강남6관,서울,2D
539-9407,서울특별시 강남구 역삼동 814-6 스타플렉스 6층,"서울특별시 강남구 강남대로 438 (역삼동, 스타플렉스)",더스크린,강남1관,서울,2D
640-6121,충청남도 천안시 동남구 신부동 354-1,충청남도 천안시 동남구 만남로 43 (신부동),더스크린천안터미널,2관,대전/충청/세종,2D
640-6121,충청남도 천안시 동남구 신부동 354-1,충청남도 천안시 동남구 만남로 43 (신부동),더스크린천안터미널,5관,대전/충청/세종,2D
640-6121,충청남도 천안시 동남구 신부동 354-1,충청남도 천안시 동남구 만남로 43 (신부동),더스크린천안터미널,4관,대전/충청/세종,2D
640-6121,충청남도 천안시 동남구 신부동 354-1,충청남도 천안시 동남구 만남로 43 (신부동),더스크린천안터미널,3관,대전/충청/세종,2D
640-6121,충청남도 천안시 동남구 신부동 354-1,충청남도 천안시 동남구 만남로 43 (신부동),더스크린천안터미널,6관,대전/충청/세종,2D
640-6121,충청남도 천안시 동남구 신부동 354-1,충청남도 천안시 동남구 만남로 43 (신부동),더스크린천안터미널,10관,대전/충청/세종,2D
640-6121,충청남도 천안시 동남구 신부동 354-1,충청남도 천안시 동남구 만남로 43 (신부동),더스크린천안터미널,9관,대전/충청/세종,2D
640-6121,충청남도 천안시 동남구 신부동 354-1,충청남도 천안시 동남구 만남로 43 (신부동),더스크린천안터미널 I,MAX관,대전/충청/세종,2D
640-6121,충청남도 천안시 동남구 신부동 354-1,충청남도 천안시 동남구 만남로 43 (신부동),더스크린천안터미널,8관,대전/충청/세종,2D
640-6121,충청남도 천안시 동남구 신부동 354-1,충청남도 천안시 동남구 만남로 43 (신부동),더스크린천안터미널,1관,대전/충청/세종,2D
070-5102-7794,경기도 용인시 기흥구 중동 833번지 쥬네브썬월드빌딩 7001호,"경기도 용인시 기흥구 동백죽전대로 444, 7001호 (중동, 쥬네브썬월드빌딩)",더스크린동백,1관,경기,2D
,경기도 용인시 기흥구 중동 833 쥬네브썬월드빌딩 7001호,"경기도 용인시 기흥구 동백죽전대로 444, 7001호 (중동, 쥬네브썬월드)",더스크린동백,2관,경기,2D
,경기도 용인시 기흥구 중동 833번지 쥬네브썬월드빌딩 7001호,"경기도 용인시 기흥구 동백죽전대로 444, 7001호 (중동, 쥬네브썬월드)",더스크린동백,3관,경기,2D
,경기도 용인시 기흥구 중동 833번지 쥬네브썬월드빌딩 7001호,"경기도 용인시 기흥구 동백죽전대로 444, 7001호 (중동, 쥬네브썬월드)",더스크린동백,4관,경기,2D
,경기도 용인시 기흥구 중동 833번지 쥬네브썬월드빌딩 7001호,"경기도 용인시 기흥구 동백죽전대로 444, 7001호 (중동, 쥬네브썬월드)",더스크린동백,5관,경기,2D
,경기도 용인시 기흥구 중동 833번지 쥬네브썬월드빌딩 7001호,"경기도 용인시 기흥구 동백죽전대로 444, 7001호 (중동, 쥬네브썬월드)",더스크린동백,6관,경기,2D
,경기도 용인시 기흥구 중동 833번지 쥬네브썬월드빌딩 7001호,"경기도 용인시 기흥구 동백죽전대로 444, 7001호 (중동, 쥬네브썬월드)",더스크린동백,7관,경기,2D
,경기도 용인시 기흥구 중동 833번지 쥬네브썬월드빌딩 7001호,"경기도 용인시 기흥구 동백죽전대로 444, 7001호 (중동, 쥬네브썬월드)",더스크린동백,8관,경기,2D
055-680-0601,경상남도 거제시 장평동 1211,경상남도 거제시 장평로 12 (장평동),더스크린거제,4관,부산/대구/경상,2D
055-680-0601,경상남도 거제시 장평동 1211,경상남도 거제시 장평로 12 (장평동),더스크린거제,6관,부산/대구/경상,2D
055-680-0601,경상남도 거제시 장평동 1211,경상남도 거제시 장평로 12 (장평동),더스크린거제,3관,부산/대구/경상,2D
055-680-0601,경상남도 거제시 장평동 1211,경상남도 거제시 장평로 12 (장평동),더스크린거제,2관,부산/대구/경상,2D
055-680-0601,경상남도 거제시 장평동 1211,경상남도 거제시 장평로 12 (장평동),더스크린거제,1관,부산/대구/경상,2D
055-680-0601,경상남도 거제시 장평동 1211,경상남도 거제시 장평로 12 (장평동),더스크린거제,7관,부산/대구/경상,2D
055-680-0601,경상남도 거제시 장평동 1211,경상남도 거제시 장평로 12 (장평동),더스크린거제,5관,부산/대구/경상,2D
509-3400,인천광역시 계양구 작전동 899-1 8층,"인천광역시 계양구 장제로 738, 8층 (작전동)",더스크린계양,2관,인천,2D
509-3400,인천광역시 계양구 작전동 899-1 8층,"인천광역시 계양구 장제로 738 (작전동,8층)",더스크린계양,3관,인천,2D
509-3400,인천광역시 계양구 작전동 899-1 8층,"인천광역시 계양구 장제로 738 (작전동,8층)",더스크린계양,4관,인천,2D
509-3400,인천광역시 계양구 작전동 899-1 10층,"인천광역시 계양구 장제로 738 (작전동,10층)",더스크린계양,5관,인천,2D
509-3400,인천광역시 계양구 작전동 899-1 10층,"인천광역시 계양구 장제로 738 (작전동,10층)",더스크린계양,6관,인천,2D
509-3400,인천광역시 계양구 작전동 899-1 10층,"인천광역시 계양구 장제로 738 (작전동,10층)",더스크린계양,7관,인천,2D
509-3400,인천광역시 계양구 작전동 899-1 10층,"인천광역시 계양구 장제로 738 (작전동,10층)",더스크린계양,8관,인천,2D
509-3400,인천광역시 계양구 작전동 899-1 8층,"인천광역시 계양구 장제로 738 (작전동,8층)",더스크린계양,1관,인천,2D
,경기도 수원시 팔달구 인계동 1113-11 7층~10층동,"경기도 수원시 팔달구 권광로 181, 7층~10층동 (인계동)",더스크린동수원,3관,경기,2D
,경기도 수원시 팔달구 인계동 1113-11 7층~10층동,"경기도 수원시 팔달구 권광로 181, 7층~10층동 (인계동)",더스크린동수원,7관,경기,2D
,경기도 수원시 팔달구 인계동 1113-11 7층~10층동,"경기도 수원시 팔달구 권광로 181, 7층~10층동 (인계동)",더스크린동수원,2관,경기,2D
,경기도 수원시 팔달구 인계동 1113-11 7층~10층동,"경기도 수원시 팔달구 권광로 181, 7층~10층동 (인계동)",더스크린동수원,6관,경기,2D
,경기도 수원시 팔달구 인계동 1113-11 7층~10층동,"경기도 수원시 팔달구 권광로 181, 7층~10층동 (인계동)",더스크린동수원,5관,경기,2D
,경기도 수원시 팔달구 인계동 1113-11 7층~10층동,"경기도 수원시 팔달구 권광로 181, 7층~10층동 (인계동)",더스크린동수원,4DX관,경기,4DX
,경기도 수원시 팔달구 인계동 1113-11 7층~10층동,"경기도 수원시 팔달구 권광로 181, 7층~10층동 (인계동)",더스크린동수원,8관,경기,2D
3446-0105,서울특별시 강남구 신사동 602,"서울특별시 강남구 압구정로30길 45, 지하2층, 지하5층 (신사동)",더스크린압구정,4관,서울,2D
3446-0105,서울특별시 강남구 신사동 602,"서울특별시 강남구 압구정로30길 45, 지하2층, 지하5층 (신사동)",더스크린압구정 ART,1관,서울,2D
3446-0105,서울특별시 강남구 신사동 602,"서울특별시 강남구 압구정로30길 45, 지하2층, 지하5층 (신사동)",더스크린압구정 ART,2관,서울,2D
043-218-9906,충청북도 청주시 청원구 율량동 500-3,충청북도 청주시 청원구 충청대로 114 (율량동),더스크린청주율량,2관,대전/충청/세종,2D
043-218-9906,충청북도 청주시 청원구 율량동 500-3,충청북도 청주시 청원구 충청대로 114 (율량동),더스크린청주율량,1관,대전/충청/세종,2D
043-218-9906,충청북도 청주시 청원구 율량동 500-3,충청북도 청주시 청원구 충청대로 114 (율량동),더스크린청주율량,3관,대전/충청/세종,2D
043-218-9906,충청북도 청주시 청원구 율량동 500-3,충청북도 청주시 청원구 충청대로 114 (율량동),더스크린청주율량,4관,대전/충청/세종,2D
043-218-9906,충청북도 청주시 청원구 율량동 500-3,충청북도 청주시 청원구 충청대로 114 (율량동),더스크린청주율량,5관,대전/충청/세종,2D
043-218-9906,충청북도 청주시 청원구 율량동 500-3,충청북도 청주시 청원구 충청대로 114 (율량동),더스크린청주율량,6관,대전/충청/세종,2D
043-218-9906,충청북도 청주시 청원구 율량동 500-3,충청북도 청주시 청원구 충청대로 114 (율량동),더스크린청주율량,7관,대전/충청/세종,2D
043-218-9906,충청북도 청주시 청원구 율량동 500-3,충청북도 청주시 청원구 충청대로 114 (율량동),더스크린청주율량,8관,대전/충청/세종,2D
043-218-9906,충청북도 청주시 청원구 율량동 500-3,충청북도 청주시 청원구 충청대로 114 (율량동),더스크린청주율량,9관,대전/충청/세종,2D
043-218-9906,충청북도 청주시 청원구 율량동 500-3,충청북도 청주시 청원구 충청대로 114 (율량동),더스크린청주율량,10관,대전/충청/세종,2D
043-218-9906,충청북도 청주시 청원구 율량동 500-3,충청북도 청주시 청원구 충청대로 114 (율량동),더스크린청주율량,11관,대전/충청/세종,2D
062-261-5398,광주광역시 북구 용봉동 17-1,광주광역시 북구 문화소통로 170 (용봉동),CJ 더스크린,광주용봉1관,광주/전라,2D
062-261-5398,광주광역시 북구 용봉동 17-1,광주광역시 북구 문화소통로 170 (용봉동),CJ 더스크린,광주용봉2관,광주/전라,2D
062-261-5398,광주광역시 북구 용봉동 17-1,광주광역시 북구 문화소통로 170 (용봉동),CJ 더스크린,광주용봉3관,광주/전라,2D
062-261-5398,광주광역시 북구 용봉동 17-1,광주광역시 북구 문화소통로 170 (용봉동),CJ 더스크린,광주용봉4관,광주/전라,2D
062-261-5398,광주광역시 북구 용봉동 17-1,광주광역시 북구 문화소통로 170 (용봉동),CJ 더스크린,광주용봉5관,광주/전라,2D
062-261-5398,광주광역시 북구 용봉동 17-1,광주광역시 북구 문화소통로 170 (용봉동),CJ 더스크린,광주용봉6관,광주/전라,2D
062-261-5398,광주광역시 북구 용봉동 17-1,광주광역시 북구 문화소통로 170 (용봉동),CJ 더스크린,광주용봉7관,광주/전라,2D
062-261-5398,광주광역시 북구 용봉동 17-1,광주광역시 북구 문화소통로 170 (용봉동),CJ 더스크린,광주용봉8관,광주/전라,2D
062-261-5398,광주광역시 북구 용봉동 17-1,광주광역시 북구 문화소통로 170 (용봉동),CJ 더스크린,광주용봉9관,광주/전라,2D
062-261-5398,광주광역시 북구 용봉동 17-1,광주광역시 북구 문화소통로 170 (용봉동),CJ 더스크린,광주용봉10관,광주/전라,2D
,서울특별시 중구 충무로2가 65-9,서울특별시 중구 퇴계로 123 (충무로2가),더스크린 명동역 씨네라이브러리,4관,서울,2D
2079-0301,서울특별시 중구 충무로2가 65-9,서울특별시 중구 퇴계로 123 (충무로2가),더스크린명동역 씨네라이브러리 ART,1관,서울,2D
,서울특별시 중구 충무로2가 65-9,서울특별시 중구 퇴계로 123 (충무로2가),더스크린 명동역 씨네라이브러리,5관,서울,2D
,서울특별시 중구 충무로2가 65-9,서울특별시 중구 퇴계로 123 (충무로2가),더스크린명동역 씨네라이브러리 ART,2관,서울,2D
,서울특별시 중구 충무로2가 65-9,서울특별시 중구 퇴계로 123 (충무로2가),더스크린명동역 씨네라이브러리,3관,서울,2D
02-526-8983,서울특별시 중구 명동2가 83-5 Noon Square,"서울특별시 중구 명동길 14, Noon Square 8층 (명동2가)",더스크린 명동,1관,서울,2D
032-348-4307,경기도 부천시 소사구 괴안동 113-1 역곡하이뷰 6~8층,"경기도 부천시 소사구 경인로 505, 6층 (괴안동, 역곡하이뷰)",더스크린역곡,6관,경기,2D
032-348-4307,경기도 부천시 소사구 괴안동 113-1 역곡하이뷰 6~8층,"경기도 부천시 소사구 경인로 505, 6층 (괴안동)",더스크린역곡,1관,경기,2D
032-348-4307,경기도 부천시 소사구 괴안동 113-1 역곡하이뷰 6~8층,"경기도 부천시 소사구 경인로 505, 6층 (괴안동, 역곡하이뷰)",더스크린역곡,2관,경기,2D
032-348-4307,경기도 부천시 소사구 괴안동 113-1 역곡하이뷰 6~8층,"경기도 부천시 소사구 경인로 505, 6층 (괴안동, 역곡하이뷰)",더스크린역곡,3관,경기,2D
032-348-4307,경기도 부천시 소사구 괴안동 113-1 역곡하이뷰 6~8층,"경기도 부천시 소사구 경인로 505, 6층 (괴안동, 역곡하이뷰)",더스크린역곡,4관,경기,2D
032-348-4307,경기도 부천시 소사구 괴안동 113-1 역곡하이뷰 6~8층,"경기도 부천시 소사구 경인로 505, 6층 (괴안동, 역곡하이뷰)",더스크린역곡,5관,경기,2D
062-974-1902,광주광역시 광산구 쌍암동 694-35,광주광역시 광산구 임방울대로826번길 29-31 (쌍암동),더스크린첨단점,1관,광주/전라,2D
062-974-1902,광주광역시 광산구 쌍암동 694-35,광주광역시 광산구 임방울대로826번길 29-31 (쌍암동),더스크린첨단점,2관,광주/전라,2D
062-974-1902,광주광역시 광산구 쌍암동 694-35,광주광역시 광산구 임방울대로826번길 29-31 (쌍암동),더스크린첨단점,3관,광주/전라,2D
062-974-1902,광주광역시 광산구 쌍암동 694-35,광주광역시 광산구 임방울대로826번길 29-31 (쌍암동),더스크린첨단점,4관,광주/전라,2D
062-974-1902,광주광역시 광산구 쌍암동 694-35,광주광역시 광산구 임방울대로826번길 29-31 (쌍암동),더스크린첨단점,6관,광주/전라,2D
062-974-1902,광주광역시 광산구 쌍암동 694-35,광주광역시 광산구 임방울대로826번길 29-31 (쌍암동),더스크린첨단점,7관,광주/전라,2D
062-974-1902,광주광역시 광산구 쌍암동 694-35,광주광역시 광산구 임방울대로826번길 29-31 (쌍암동),더스크린첨단점,5관,광주/전라,2D
062-974-1902,광주광역시 광산구 쌍암동 694-35,광주광역시 광산구 임방울대로826번길 29-31 (쌍암동),더스크린첨단점,8관,광주/전라,2D
062-974-1902,광주광역시 광산구 쌍암동 694-35,광주광역시 광산구 임방울대로826번길 29-31 (쌍암동),더스크린첨단점,9관,광주/전라,2D
031-870-2001,경기도 의정부시 의정부동 494 외 6필지,"경기도 의정부시 시민로 80 (의정부동,외 6필지)",더스크린 의정부태흥,1관,경기,2D
031-870-2001,경기도 의정부시 의정부동 494 외 6필지,"경기도 의정부시 시민로 80 (의정부동,외 6필지)",더스크린 의정부태흥,2관,경기,2D
031-870-2001,경기도 의정부시 의정부동 494 외 6필지,"경기도 의정부시 시민로 80 (의정부동,외 6필지)",더스크린 의정부태흥,3관,경기,2D
031-870-2001,경기도 의정부시 의정부동 494 외 6필지,"경기도 의정부시 시민로 80 (의정부동,외 6필지)",더스크린 의정부태흥,4관,경기,2D
031-870-2001,경기도 의정부시 의정부동 494 외 6필지,"경기도 의정부시 시민로 80 (의정부동,외 6필지)",더스크린 의정부태흥,5관,경기,2D
031-870-2001,경기도 의정부시 의정부동 494 외 6필지,"경기도 의정부시 시민로 80 (의정부동,외 6필지)",더스크린 의정부태흥,6관,경기,2D
031-870-2001,경기도 의정부시 의정부동 494 외 6필지,"경기도 의정부시 시민로 80 (의정부동,외 6필지)",더스크린 의정부태흥,7관,경기,2D
031-870-2001,경기도 의정부시 의정부동 494 외 6필지,"경기도 의정부시 시민로 80 (의정부동,외 6필지)",더스크린 의정부태흥,8관,경기,2D
031-870-2001,경기도 의정부시 의정부동 494 외 6필지,"경기도 의정부시 시민로 80 (의정부동,외 6필지)",더스크린 의정부태흥,9관,경기,2D
032-456-7473,인천광역시 연수구 청학동 496-4 연수동광장프라자 10층,"인천광역시 연수구 벚꽃로 106, 8층 (청학동)",더스크린 연수역,4관,인천,2D
032-456-7473,인천광역시 연수구 청학동 496-4 연수동광장프라자 10층,"인천광역시 연수구 벚꽃로 106, 8층 (청학동)",더스크린 연수역,3관,인천,2D
032-456-7473,인천광역시 연수구 청학동 496-4 연수동광장프라자 10층,"인천광역시 연수구 벚꽃로 106, 8층 (청학동)",더스크린 연수역,2관,인천,2D
032-456-7473,인천광역시 연수구 청학동 496-4 연수동광장프라자 10층,"인천광역시 연수구 벚꽃로 106, 8층 (청학동)",더스크린 연수역,1관,인천,2D
032-456-7473,인천광역시 연수구 청학동 496-4 연수동광장프라자 10층,"인천광역시 연수구 벚꽃로 106, 8층 (청학동)",더스크린 연수역,5관,인천,2D
032-456-7473,인천광역시 연수구 청학동 496-4 연수동광장프라자 10층,"인천광역시 연수구 벚꽃로 106, 8층 (청학동)",더스크린 연수역,6관,인천,2D
032-456-7473,인천광역시 연수구 청학동 496-4 연수동광장프라자 10층,"인천광역시 연수구 벚꽃로 106, 8층 (청학동)",더스크린 연수역,7관,인천,2D
032-456-7473,인천광역시 연수구 청학동 496-4 연수동광장프라자 10층,"인천광역시 연수구 벚꽃로 106, 8층 (청학동)",더스크린 연수역,8관,인천,2D
032-456-7473,인천광역시 연수구 청학동 496-4 연수동광장프라자 10층,"인천광역시 연수구 벚꽃로 106, 8층 (청학동)",더스크린 연수역,9관,인천,2D
055-900-9551,경상남도 김해시 내동 1131-4 휴앤락몰,"경상남도 김해시 내외중앙로 137, 4층 (내동, 휴앤락몰)",더스크린 김해9,1관,부산/대구/경상,2D
055-900-9551,경상남도 김해시 내동 1131-4 휴앤락몰,"경상남도 김해시 내외중앙로 137, 4층 (내동, 휴앤락몰)",더스크린 김해9,2관,부산/대구/경상,2D
055-900-9551,경상남도 김해시 내동 1131-4 휴앤락몰,"경상남도 김해시 내외중앙로 137, 4층 (내동, 휴앤락몰)",더스크린 김해9,3관,부산/대구/경상,2D
055-900-9551,경상남도 김해시 내동 1131-4 휴앤락몰,"경상남도 김해시 내외중앙로 137, 4층 (내동, 휴앤락몰)",더스크린 김해9,4관,부산/대구/경상,2D
055-900-9551,경상남도 김해시 내동 1131-4 휴앤락몰,"경상남도 김해시 내외중앙로 137, 4층 (내동, 휴앤락몰)",더스크린 김해9,5관,부산/대구/경상,2D
055-900-9551,경상남도 김해시 내동 1131-4 휴앤락몰,"경상남도 김해시 내외중앙로 137, 4층 (내동, 휴앤락몰)",더스크린 김해9,6관,부산/대구/경상,2D
055-900-9551,경상남도 김해시 내동 1131-4 휴앤락몰,"경상남도 김해시 내외중앙로 137, 4층 (내동, 휴앤락몰)",더스크린 김해9,7관,부산/대구/경상,2D
055-900-9551,경상남도 김해시 내동 1131-4 휴앤락몰,"경상남도 김해시 내외중앙로 137, 4층 (내동, 휴앤락몰)",더스크린 김해9,8관,부산/대구/경상,2D
055-900-9551,경상남도 김해시 내동 1131-4 휴앤락몰,"경상남도 김해시 내외중앙로 137, 4층 (내동, 휴앤락몰)",더스크린 김해9,9관,부산/대구/경상,2D
,인천광역시 미추홀구 주안동 30-1 카라아울렛 7층,"인천광역시 미추홀구 염창로 58, 7층 (주안동, 카라아울렛)",더스크린주안역,1관,인천,2D
,인천광역시 미추홀구 주안동 30-1 카라아울렛 7층,"인천광역시 미추홀구 염창로 58, 7층 (주안동, 카라아울렛)",더스크린주안역,2관,인천,2D
,인천광역시 미추홀구 주안동 30-1 카라아울렛 7층,"인천광역시 미추홀구 염창로 58, 7층 (주안동, 카라아울렛)",더스크린주안역,3관,인천,2D
,인천광역시 미추홀구 주안동 30-1 카라아울렛 7층,"인천광역시 미추홀구 염창로 58, 7층 (주안동, 카라아울렛)",더스크린주안역,4관,인천,2D
,인천광역시 미추홀구 주안동 30-1 카라아울렛 7층,"인천광역시 미추홀구 염창로 58, 7층 (주안동, 카라아울렛)",더스크린주안역,5관,인천,2D
,인천광역시 미추홀구 주안동 30-1 카라아울렛 7층,"인천광역시 미추홀구 염창로 58, 7층 (주안동, 카라아울렛)",더스크린주안역,6관,인천,2D
,인천광역시 미추홀구 주안동 30-1 카라아울렛 7층,"인천광역시 미추홀구 염창로 58, 7층 (주안동, 카라아울렛)",더스크린주안역,7관,인천,2D
,인천광역시 미추홀구 주안동 30-1 카라아울렛 7층,"인천광역시 미추홀구 염창로 58, 7층 (주안동, 카라아울렛)",더스크린주안역,8관,인천,2D
,인천광역시 미추홀구 주안동 30-1 카라아울렛 7층,"인천광역시 미추홀구 염창로 58, 7층 (주안동, 카라아울렛)",더스크린주안역,9관,인천,2D
284-2800,전라남도 목포시 상동 1129-6,전라남도 목포시 원형동로 53 (상동),더스크린목포평화광장,1관,광주/전라,2D
,전라남도 목포시 상동 892,전라남도 목포시 교육로 63 (상동),더스크린,목포3관,광주/전라,2D
,전라남도 목포시 상동 892,전라남도 목포시 교육로 63 (상동),더스크린,목포2관,광주/전라,2D
,전라남도 목포시 상동 892,전라남도 목포시 교육로 63 (상동),더스크린,목포5관,광주/전라,2D
,전라남도 목포시 상동 892,전라남도 목포시 교육로 63 (상동),더스크린,목포4관,광주/전라,2D
,전라남도 목포시 상동 892,전라남도 목포시 교육로 63 (상동),더스크린,목포1관,광주/전라,2D
3674-7735,서울특별시 종로구 명륜2가 41-9 대학로CGV 2층,"서울특별시 종로구 대명길 28, 대학로CGV 2층 (명륜2가)",더스크린 대학로,6관,서울,2D
3674-7735,서울특별시 종로구 돈의동 137 지하2층,"서울특별시 종로구 돈화문로5가길 1 (돈의동,지하2층)",더스크린피카디리1958,1관,서울,2D
3674-7735,서울특별시 종로구 돈의동 137 피카디리플러스,"서울특별시 종로구 돈화문로5가길 1, 지하2층 (돈의동)",더스크린 피카디리1958,2관,서울,2D
3674-7735,서울특별시 종로구 돈의동 137 지하4층,"서울특별시 종로구 돈화문로5가길 1 (돈의동,지하4층)",더스크린피카디리1958,4관,서울,2D
3674-7735,서울특별시 종로구 돈의동 137 지하4층,"서울특별시 종로구 돈화문로5가길 1 (돈의동,지하4층)",더스크린피카디리1958,5관,서울,2D
3674-7735,서울특별시 종로구 돈의동 137 지하4층,"서울특별시 종로구 돈화문로5가길 1 (돈의동,지하4층)",더스크린 피카디리1958,6관,서울,2D
055-270-4801,경상남도 창원시 의창구 팔용동 30-1,경상남도 창원시 의창구 창원대로397번길 6 (팔용동),더스크린 창원6,1관,부산/대구/경상,2D
055-270-4800,경상남도 창원시 의창구 팔용동 30-1,경상남도 창원시 의창구 창원대로397번길 6 (팔용동),더스크린 창원6,2관,부산/대구/경상,2D
055-270-4802,경상남도 창원시 의창구 팔용동 30-1,경상남도 창원시 의창구 창원대로397번길 6 (팔용동),더스크린 창원6,3관,부산/대구/경상,2D
,경상남도 창원시 의창구 팔용동 30-1,경상남도 창원시 의창구 창원대로397번길 6 (팔용동),더스크린 창원6,4관,부산/대구/경상,2D
,경상남도 창원시 의창구 팔용동 30-1,경상남도 창원시 의창구 창원대로397번길 6 (팔용동),더스크린 창원6,5관,부산/대구/경상,2D
,경상남도 창원시 의창구 팔용동 30-1,경상남도 창원시 의창구 창원대로397번길 6 (팔용동),더스크린 창원6,6관,부산/대구/경상,2D
053-784-0797,대구광역시 수성구 범물동 1273 동아백화점 수성점 9층,"대구광역시 수성구 지범로 191 (범물동,동아백화점 수성점 9층)",더스크린 대구수성,1관,부산/대구/경상,2D
053-784-0797,대구광역시 수성구 범물동 1273 동아백화점 수성점 9층,"대구광역시 수성구 지범로 191 (범물동,동아백화점 수성점 9층)",더스크린 대구수성,2관,부산/대구/경상,2D
053-784-0797,대구광역시 수성구 범물동 1273 동아백화점 수성점 9층,"대구광역시 수성구 지범로 191 (범물동,동아백화점 수성점 9층)",더스크린 대구수성,3관,부산/대구/경상,2D
053-784-0797,대구광역시 수성구 범물동 1273 동아백화점 수성점 9층,"대구광역시 수성구 지범로 191 (범물동,동아백화점 수성점 9층)",더스크린 대구수성,4관,부산/대구/경상,2D
766-3211,서울특별시 종로구 명륜2가 41-9 지하3층,"서울특별시 종로구 대명길 28 (명륜2가,지하3층)",더스크린 대학로,1관,서울,2D
766-3211,서울특별시 종로구 명륜2가 41-9 지하3층,"서울특별시 종로구 대명길 28 (명륜2가,지하3층)",더스크린 대학로,2관,서울,2D
766-3211,서울특별시 종로구 명륜2가 41-9 지하2층,"서울특별시 종로구 대명길 28 (명륜2가,지하2층)",더스크린 대학로,3관,서울,2D
766-3211,서울특별시 종로구 명륜2가 41-9 지하2층,"서울특별시 종로구 대명길 28 (명륜2가,지하2층)",더스크린 대학로,4관,서울,2D
766-3211,서울특별시 종로구 명륜2가 41-9 3층,"서울특별시 종로구 대명길 28 (명륜2가,3층)",더스크린 대학로,7관,서울,2D
766-3211,서울특별시 종로구 명륜2가 41-9 4층,"서울특별시 종로구 대명길 28 (명륜2가,4층)",더스크린 대학로,8관,서울,2D
070-5030-3577,대전광역시 유성구 지족동 905-4,"대전광역시 유성구 노은로 144, 6-8층 (지족동, 노은타운)",더스크린 유성노은,1관,대전/충청/세종,2D
070-5030-3577,대전광역시 유성구 지족동 905-4,"대전광역시 유성구 노은로 144, 6-8층 (지족동, 노은타운)",더스크린 유성노은,2관,대전/충청/세종,2D
070-5030-3577,대전광역시 유성구 지족동 905-4,"대전광역시 유성구 노은로 144, 6-8층 (지족동, 노은타운)",더스크린 유성노은,3관,대전/충청/세종,2D
070-5030-3577,대전광역시 유성구 지족동 905-4,"대전광역시 유성구 노은로 144, 6-8층 (지족동, 노은타운)",더스크린 유성노은,4관,대전/충청/세종,2D
070-5030-3577,대전광역시 유성구 지족동 905-4,"대전광역시 유성구 노은로 144, 6-8층 (지족동, 노은타운)",더스크린 유성노은,5관,대전/충청/세종,2D
043-232-6344,충청북도 청주시 흥덕구 가경동 1416-3 드림플러스 8층,"충청북도 청주시 흥덕구 2순환로 1233, 8층 (가경동)",더스크린청주터미널,1관,대전/충청/세종,2D
043-232-6344,충청북도 청주시 흥덕구 가경동 1416-3 드림플러스 8층,"충청북도 청주시 흥덕구 2순환로 1233, 8층 (가경동)",더스크린청주터미널,2관,대전/충청/세종,2D
043-232-6344,충청북도 청주시 흥덕구 가경동 1416-3 드림플러스 8층,"충청북도 청주시 흥덕구 2순환로 1233, 8층 (가경동)",더스크린청주터미널,3관,대전/충청/세종,2D
043-232-6344,충청북도 청주시 흥덕구 가경동 1416-3 드림플러스 8층,"충청북도 청주시 흥덕구 2순환로 1233, 8층 (가경동)",더스크린청주터미널,4관,대전/충청/세종,2D
043-232-6344,충청북도 청주시 흥덕구 가경동 1416-3 드림플러스 8층,"충청북도 청주시 흥덕구 2순환로 1233, 8층 (가경동)",더스크린청주터미널,5관,대전/충청/세종,2D
043-232-6344,충청북도 청주시 흥덕구 가경동 1416-3 드림플러스 8층,"충청북도 청주시 흥덕구 2순환로 1233, 8층 (가경동)",더스크린청주터미널,6관,대전/충청/세종,2D
043-232-6344,충청북도 청주시 흥덕구 가경동 1416-3 드림플러스 8층,"충청북도 청주시 흥덕구 2순환로 1233, 8층 (가경동)",더스크린청주터미널,7관,대전/충청/세종,2D
043-232-6344,충청북도 청주시 흥덕구 가경동 1416-3 드림플러스 8층,"충청북도 청주시 흥덕구 2순환로 1233, 8층 (가경동)",더스크린청주터미널,8관,대전/충청/세종,2D
051-507-5282,부산광역시 연제구 거제동 1208,부산광역시 연제구 종합운동장로 7 (거제동),더스크린 아시아드,3관,부산/대구/경상,2D
051-507-5282,부산광역시 연제구 거제동 1208,부산광역시 연제구 종합운동장로 7 (거제동),더스크린 아시아드,4관,부산/대구/경상,2D
051-507-5282,부산광역시 연제구 거제동 1208,부산광역시 연제구 종합운동장로 7 (거제동),더스크린 아시아드,5관,부산/대구/경상,2D
051-507-5282,부산광역시 연제구 거제동 1208,부산광역시 연제구 종합운동장로 7 (거제동),더스크린 아시아드,6관,부산/대구/경상,2D
051-507-5282,부산광역시 연제구 거제동 1208,부산광역시 연제구 종합운동장로 7 (거제동),더스크린 아시아드,1관,부산/대구/경상,2D
051-507-5282,부산광역시 연제구 거제동 1208,부산광역시 연제구 종합운동장로 7 (거제동),더스크린 아시아드,2관,부산/대구/경상,2D
051-507-5282,부산광역시 연제구 거제동 1208,부산광역시 연제구 종합운동장로 7 (거제동),더스크린 아시아드,7관,부산/대구/경상,2D
051-507-5282,부산광역시 연제구 거제동 1208,부산광역시 연제구 종합운동장로 7 (거제동),더스크린 아시아드,8관,부산/대구/경상,2D
652-6007,경기도 부천시 원미구 심곡동 383-1 씨네마홀 8층,"경기도 부천시 원미구 부일로 460, 8층 (심곡동, 씨네마홀)",더스크린부천역,1관,경기,2D
652-6007,경기도 부천시 원미구 심곡동 383-1 씨네마홀 8층,"경기도 부천시 원미구 부일로 460, 8층 (심곡동, 씨네마홀)",더스크린부천역,2관,경기,2D
652-6007,경기도 부천시 원미구 심곡동 383-1 씨네마홀 8층,"경기도 부천시 원미구 부일로 460, 8층 (심곡동, 씨네마홀)",더스크린부천역,3관,경기,2D
652-6007,경기도 부천시 원미구 심곡동 383-1 씨네마홀 8층,"경기도 부천시 원미구 부일로 460, 8층 (심곡동, 씨네마홀)",더스크린부천역,4관,경기,2D
652-6007,경기도 부천시 원미구 심곡동 383-1 씨네마홀 8층,"경기도 부천시 원미구 부일로 460, 8층 (심곡동, 씨네마홀)",더스크린부천역,5관,경기,2D
652-6007,경기도 부천시 원미구 심곡동 383-1 씨네마홀 8층,"경기도 부천시 원미구 부일로 460, 8층 (심곡동, 씨네마홀)",더스크린부천역,6관,경기,2D
652-6007,경기도 부천시 원미구 심곡동 383-1 씨네마홀 8층,"경기도 부천시 원미구 부일로 460, 8층 (심곡동, 씨네마홀)",더스크린부천역,7관,경기,2D
652-6007,경기도 부천시 원미구 심곡동 383-1 씨네마홀 8층,"경기도 부천시 원미구 부일로 460, 8층 (심곡동, 씨네마홀)",더스크린부천역,8관,경기,2D
032-623-1780,경기도 부천시 원미구 중동,"경기도 부천시 원미구 길주로 180, 6층 (중동, 현대백화점부천중동점)",더스크린부천8,8관,경기,2D
032-623-1780,경기도 부천시 원미구 중동,"경기도 부천시 원미구 길주로 180, 6층 (중동, 현대백화점부천중동점)",더스크린부천8,2관,경기,2D
032-623-1780,경기도 부천시 원미구 중동,"경기도 부천시 원미구 길주로 180, 6층 (중동, 현대백화점부천중동점)",더스크린부천8,3관,경기,2D
032-623-1780,경기도 부천시 원미구 중동,"경기도 부천시 원미구 길주로 180, 6층 (중동, 현대백화점부천중동점)",더스크린부천8,4관,경기,2D
032-623-1780,경기도 부천시 원미구 중동,"경기도 부천시 원미구 길주로 180, 6층 (중동, 현대백화점부천중동점)",더스크린부천8,6관,경기,2D
032-623-1780,경기도 부천시 원미구 중동,"경기도 부천시 원미구 길주로 180, 6층 (중동, 현대백화점부천중동점)",더스크린부천8,7관,경기,2D
032-623-1780,경기도 부천시 원미구 중동,"경기도 부천시 원미구 길주로 180, 6층 (중동, 현대백화점부천중동점)",더스크린부천8,5관,경기,2D
032-623-1780,경기도 부천시 원미구 중동,"경기도 부천시 원미구 길주로 180, 6층 (중동, 현대백화점부천중동점)",더스크린부천8,1관,경기,2D
,경상북도 포항시 북구 덕산동 235-4,경상북도 포항시 북구 서동로 93 (덕산동),더스크린 북포항,3관,부산/대구/경상,2D
,경상북도 포항시 북구 덕산동 235-4,경상북도 포항시 북구 서동로 93 (덕산동),더스크린 북포항,2관,부산/대구/경상,2D
,경상북도 포항시 북구 덕산동 235-4,경상북도 포항시 북구 서동로 93 (덕산동),더스크린 북포항,1관,부산/대구/경상,2D
,경상북도 포항시 북구 덕산동 235-4,경상북도 포항시 북구 서동로 93 (덕산동),더스크린 북포항,9관,부산/대구/경상,2D
,경상북도 포항시 북구 덕산동 235-4,경상북도 포항시 북구 서동로 93 (덕산동),더스크린 북포항,8관,부산/대구/경상,2D
,경상북도 포항시 북구 덕산동 235-4,경상북도 포항시 북구 서동로 93 (덕산동),더스크린 북포항,7관,부산/대구/경상,2D
,경상북도 포항시 북구 덕산동 235-4,경상북도 포항시 북구 서동로 93 (덕산동),더스크린 북포항,6관,부산/대구/경상,2D
,경상북도 포항시 북구 덕산동 235-4,경상북도 포항시 북구 서동로 93 (덕산동),더스크린 북포항,5관,부산/대구/경상,2D
031-398-4200,경기도 군포시 산본동 1142-2 4층,"경기도 군포시 번영로 505, 4층 (산본동)",더스크린 산본,2관,경기,2D
031-398-4200,경기도 군포시 산본동 1142-2 4층,"경기도 군포시 번영로 505, 4층 (산본동)",더스크린 산본,3관,경기,2D
031-398-4200,경기도 군포시 산본동 1142-2 4층,"경기도 군포시 번영로 505, 4층 (산본동)",더스크린 산본,4관,경기,2D
031-398-4200,경기도 군포시 산본동 1142-2 4층,"경기도 군포시 번영로 505, 4층 (산본동)",더스크린 산본,5관,경기,2D
031-398-4200,경기도 군포시 산본동 1142-2 4층,"경기도 군포시 번영로 505, 4층 (산본동)",더스크린 산본,6관,경기,2D
031-398-4200,경기도 군포시 산본동 1142-2 4층,"경기도 군포시 번영로 505, 4층 (산본동)",더스크린 산본,1관,경기,2D
02-971-7540,서울특별시 노원구 중계동 506-1,서울특별시 노원구 섬밭로 258 (중계동),더스크린 하계,1관,서울,2D
02-971-7540,서울특별시 노원구 중계동 506-1,서울특별시 노원구 섬밭로 258 (중계동),더스크린 하계,2관,서울,2D
02-971-7540,서울특별시 노원구 중계동 506-1,서울특별시 노원구 섬밭로 258 (중계동),더스크린 하계,3관,서울,2D
02-971-7540,서울특별시 노원구 중계동 506-1,서울특별시 노원구 섬밭로 258 (중계동),더스크린 하계,4관,서울,2D
,대구광역시 북구 칠성동2가 20,대구광역시 북구 침산로 93 (칠성동2가),더스크린대구,6관,부산/대구/경상,2D
,대구광역시 북구 칠성동2가 20,대구광역시 북구 침산로 93 (칠성동2가),더스크린대구,1관,부산/대구/경상,2D
,대구광역시 북구 칠성동2가 20,대구광역시 북구 침산로 93 (칠성동2가),더스크린대구,IMAX관,부산/대구/경상,IMAX
,대구광역시 북구 칠성동2가 20,대구광역시 북구 침산로 93 (칠성동2가),더스크린대구,2관,부산/대구/경상,2D
,대구광역시 북구 칠성동2가 20,대구광역시 북구 침산로 93 (칠성동2가),더스크린대구,9관,부산/대구/경상,2D
,대구광역시 북구 칠성동2가 20,대구광역시 북구 침산로 93 (칠성동2가),더스크린대구,3관,부산/대구/경상,2D
,대구광역시 북구 칠성동2가 20,대구광역시 북구 침산로 93 (칠성동2가),더스크린대구,10관,부산/대구/경상,2D
,대구광역시 북구 칠성동2가 20,대구광역시 북구 침산로 93 (칠성동2가),더스크린대구,4DX관,부산/대구/경상,4DX
,대구광역시 북구 칠성동2가 20,대구광역시 북구 침산로 93 (칠성동2가),더스크린대구,8관,부산/대구/경상,2D
,대구광역시 북구 칠성동2가 20,대구광역시 북구 침산로 93 (칠성동2가),더스크린대구,5관,부산/대구/경상,2D
,서울특별시 강남구 신사동 651-21,서울특별시 강남구 도산대로 323 (신사동),더스크린 청담씨네시티,1관,서울,2D
,서울특별시 강남구 신사동 651-21,서울특별시 강남구 도산대로 323 (신사동),더스크린 청담씨네시티,2관,서울,2D
,서울특별시 강남구 신사동 651-21,서울특별시 강남구 도산대로 323 (신사동),더스크린 청담씨네시티,3관,서울,2D
6094-9600,서울특별시 구로구 구로동 573 애경백화점 6층,"서울특별시 구로구 구로중앙로 152 (구로동, 애경백화점 6층)",더스크린구로10,7관,서울,2D
6094-9600,서울특별시 구로구 구로동 573 애경백화점 6층,"서울특별시 구로구 구로중앙로 152 (구로동, 애경백화점 6층)",더스크린구로10,9관,서울,2D
6094-9600,서울특별시 구로구 구로동 573 애경백화점 6층,"서울특별시 구로구 구로중앙로 152 (구로동, 애경백화점 6층)",더스크린구로10,10관,서울,2D
6094-9600,서울특별시 구로구 구로동 573 애경백화점 6층,"서울특별시 구로구 구로중앙로 152 (구로동, 애경백화점 6층)",더스크린구로10,5관,서울,2D
02-526-8983,서울특별시 중구 명동2가 83-5 Noon Square,"서울특별시 중구 명동길 14, Noon Square 8층 (명동2가)",더스크린 명동,3관,서울,2D
02-526-8983,서울특별시 중구 명동2가 83-5 Noon Square,"서울특별시 중구 명동길 14, Noon Square 8층 (명동2가)",더스크린 명동,4관,서울,2D
02-526-8983,서울특별시 중구 명동2가 83-5 Noon Square,"서울특별시 중구 명동길 14, Noon Square 8층 (명동2가)",더스크린 명동,5관,서울,2D
02-526-8983,서울특별시 중구 명동2가 83-5 Noon Square,"서울특별시 중구 명동길 14, Noon Square 8층 (명동2가)",더스크린 명동,2관,서울,2D
031-554-5285,경기도 구리시 인창동 676-2 CGV구리,"경기도 구리시 경춘로 243, CGV구리 2층 (인창동)",더스크린 구리,1관,경기,2D
031-554-5285,경기도 구리시 인창동 676-2 CGV구리,"경기도 구리시 경춘로 243, CGV구리 4층 (인창동)",더스크린 구리,2관,경기,2D
031-554-5285,경기도 구리시 인창동 676-2 CGV구리,"경기도 구리시 경춘로 243, CGV구리 4층 (인창동)",더스크린 구리,3관,경기,2D
031-554-5285,경기도 구리시 인창동 676-2 CGV구리,"경기도 구리시 경춘로 243, CGV구리 6층 (인창동)",더스크린 구리,4관,경기,2D
031-554-5285,경기도 구리시 인창동 676-2 CGV구리,"경기도 구리시 경춘로 243, CGV구리 6층 (인창동)",더스크린 구리,5관,경기,2D
031-554-5285,경기도 구리시 인창동 676-2 CGV구리,"경기도 구리시 경춘로 243, CGV구리 7층 (인창동)",더스크린 구리,6관,경기,2D
031-554-5285,경기도 구리시 인창동 676-2 CGV구리,"경기도 구리시 경춘로 243, CGV구리 2층 (인창동)",더스크린 구리,7관,경기,2D
,대전광역시 중구 문화동 1-16 세이2 지상6~8층,"대전광역시 중구 계백로 1700 (문화동,세이2 지상6~8층)",더스크린대전9,3관,대전/충청/세종,2D
,대전광역시 중구 문화동 1-16 세이2 지상6~8층,"대전광역시 중구 계백로 1700 (문화동,세이2 지상6~8층)",더스크린대전9,4관,대전/충청/세종,2D
,대전광역시 중구 문화동 1-16 세이2 지상6~8층,"대전광역시 중구 계백로 1700 (문화동,세이2 지상6~8층)",더스크린대전9,5관,대전/충청/세종,2D
,대전광역시 중구 문화동 1-16 세이2 지상6~8층,"대전광역시 중구 계백로 1700 (문화동,세이2 지상6~8층)",더스크린대전9,6관,대전/충청/세종,2D
,대전광역시 중구 문화동 1-16 세이2 지상6~8층,"대전광역시 중구 계백로 1700 (문화동,세이2 지상6~8층)",더스크린대전9,7관,대전/충청/세종,2D
,대전광역시 중구 문화동 1-16 세이2 지상6~8층,"대전광역시 중구 계백로 1700 (문화동,세이2 지상6~8층)",더스크린대전9,8관,대전/충청/세종,2D
,대전광역시 중구 문화동 1-16 세이2 지상6~8층,"대전광역시 중구 계백로 1700 (문화동,세이2 지상6~8층)",더스크린대전9,9관,대전/충청/세종,2D
,대전광역시 중구 문화동 1-16 세이2 지상6~8층,"대전광역시 중구 계백로 1700 (문화동,세이2 지상6~8층)",더스크린대전9,1관,대전/충청/세종,2D
,대전광역시 중구 문화동 1-16 세이2 지상6~8층,"대전광역시 중구 계백로 1700 (문화동,세이2 지상6~8층)",더스크린대전9,2관,대전/충청/세종,2D
910-1411,부산광역시 부산진구 전포동 892-20 지오플레이스 6층,"부산광역시 부산진구 동천로 4, 지오플레이스 6층 (전포동)",더스크린서면,4DX관,부산/대구/경상,4DX
910-1411,부산광역시 부산진구 전포동 892-20 지오플레이스 6층,"부산광역시 부산진구 동천로 4, 지오플레이스 6층 (전포동)",더스크린 서면,SCREENX관,부산/대구/경상,SCREENX
910-1411,부산광역시 부산진구 전포동 892-20 지오플레이스 6층,"부산광역시 부산진구 동천로 4, 지오플레이스 6층 (전포동)",더스크린서면,BUSINESS관,부산/대구/경상,2D
910-1411,부산광역시 부산진구 전포동 892-20 지오플레이스 6층,"부산광역시 부산진구 동천로 4, 지오플레이스 6층 (전포동)",더스크린서면,4관,부산/대구/경상,2D
910-1411,부산광역시 부산진구 전포동 892-20 지오플레이스 6층,"부산광역시 부산진구 동천로 4, 지오플레이스 6층 (전포동)",더스크린서면,ART1관,부산/대구/경상,2D
910-1411,부산광역시 부산진구 전포동 892-20 지오플레이스 6층,"부산광역시 부산진구 동천로 4, 지오플레이스 6층 (전포동)",더스크린서면,6관,부산/대구/경상,2D
910-1411,부산광역시 부산진구 전포동 892-20 지오플레이스 6층,"부산광역시 부산진구 동천로 4, 지오플레이스 6층 (전포동)",더스크린서면,7관,부산/대구/경상,2D
910-1411,부산광역시 부산진구 전포동 892-20 지오플레이스 6층,"부산광역시 부산진구 동천로 4, 지오플레이스 6층 (전포동)",더스크린서면,8관,부산/대구/경상,2D
910-1411,부산광역시 부산진구 전포동 892-20 지오플레이스 6층,"부산광역시 부산진구 동천로 4, 지오플레이스 6층 (전포동)",더스크린서면,9관,부산/대구/경상,2D
910-1411,부산광역시 부산진구 전포동 892-20 지오플레이스 6층,"부산광역시 부산진구 동천로 4, 지오플레이스 6층 (전포동)",더스크린서면,IMAX관,부산/대구/경상,IMAX
910-1411,부산광역시 부산진구 전포동 892-20 지오플레이스 6층,"부산광역시 부산진구 동천로 4, 지오플레이스 6층 (전포동)",더스크린서면,ART2관,부산/대구/경상,2D
910-1411,부산광역시 부산진구 전포동 892-20 지오플레이스 6층,"부산광역시 부산진구 동천로 4, 지오플레이스 6층 (전포동)",더스크린서면,2관,부산/대구/경상,2D
,경기도 성남시 분당구 야탑동 341 테마폴리스 지하2층,"경기도 성남시 분당구 성남대로925번길 16 (야탑동,테마폴리스 지하2층)",더스크린야탑8,5관,경기,2D
,경기도 성남시 분당구 야탑동 341 테마폴리스 지하2층,"경기도 성남시 분당구 성남대로925번길 16 (야탑동,테마폴리스 지하2층)",더스크린야탑8,6관,경기,2D
,경기도 성남시 분당구 야탑동 341 테마폴리스 지하2층,"경기도 성남시 분당구 성남대로925번길 16 (야탑동,테마폴리스 지하2층)",더스크린야탑8,7관,경기,2D
,경기도 성남시 분당구 야탑동 341 테마폴리스 지하2층,"경기도 성남시 분당구 성남대로925번길 16 (야탑동,테마폴리스 지하2층)",더스크린야탑8,1관,경기,2D
,경기도 성남시 분당구 야탑동 341 테마폴리스 지하2층,"경기도 성남시 분당구 성남대로925번길 16 (야탑동,테마폴리스 지하2층)",더스크린야탑8,2관,경기,2D
,경기도 성남시 분당구 야탑동 341 테마폴리스 지하2층,"경기도 성남시 분당구 성남대로925번길 16 (야탑동,테마폴리스 지하2층)",더스크린야탑8,3관,경기,2D
,경기도 성남시 분당구 야탑동 341 테마폴리스 지하2층,"경기도 성남시 분당구 성남대로925번길 16 (야탑동,테마폴리스 지하2층)",더스크린야탑8,4관,경기,2D
,경기도 성남시 분당구 야탑동 341 테마폴리스 지하2층,"경기도 성남시 분당구 성남대로925번길 16 (야탑동,테마폴리스 지하2층)",더스크린야탑8,8관,경기,2D
032-460-7282,인천광역시 남동구 구월동 1130,인천광역시 남동구 예술로 198 (구월동),더스크린인천14,3관,인천,2D
032-460-7282,인천광역시 남동구 구월동 1130,인천광역시 남동구 예술로 198 (구월동),더스크린인천14,9관,인천,IMAX
032-460-7282,인천광역시 남동구 구월동 1130,인천광역시 남동구 예술로 198 (구월동),더스크린인천14,10관,인천,2D
032-460-7282,인천광역시 남동구 구월동 1130,인천광역시 남동구 예술로 198 (구월동),더스크린인천14,2관,인천,2D
032-460-7282,인천광역시 남동구 구월동 1130,인천광역시 남동구 예술로 198 (구월동),더스크린인천14,4관,인천,4DX
032-460-7282,인천광역시 남동구 구월동 1130,인천광역시 남동구 예술로 198 (구월동),더스크린인천14,5관,인천,2D
032-460-7282,인천광역시 남동구 구월동 1130,인천광역시 남동구 예술로 198 (구월동),더스크린인천14,6관,인천,2D
032-460-7282,인천광역시 남동구 구월동 1130,인천광역시 남동구 예술로 198 (구월동),더스크린인천14,7관,인천,2D
032-460-7282,인천광역시 남동구 구월동 1130,인천광역시 남동구 예술로 198 (구월동),더스크린인천14,8관,인천,2D
032-460-7282,인천광역시 남동구 구월동 1130,인천광역시 남동구 예술로 198 (구월동),더스크린인천14,11관,인천,2D
032-460-7282,인천광역시 남동구 구월동 1130,인천광역시 남동구 예술로 198 (구월동),더스크린인천14,12관,인천,2D
032-460-7282,인천광역시 남동구 구월동 1130,인천광역시 남동구 예술로 198 (구월동),더스크린인천14,13관,인천,2D
032-460-7282,인천광역시 남동구 구월동 1130,인천광역시 남동구 예술로 198 (구월동),더스크린인천14,14관,인천,2D
,서울특별시 광진구 구의동 546-4 테크노마트10층,"서울특별시 광진구 광나루로56길 85, 10층 (구의동, 테크노마트)",더스크린강변11,5관,서울,2D
,서울특별시 광진구 구의동 546-4 테크노마트10층,"서울특별시 광진구 광나루로56길 85, 10층 (구의동, 테크노마트)",더스크린강변11,6관,서울,2D
,서울특별시 광진구 구의동 546-4 테크노마트10층,"서울특별시 광진구 광나루로56길 85, 10층 (구의동, 테크노마트)",더스크린강변11,7관,서울,2D
,서울특별시 광진구 구의동 546-4 테크노마트10층,"서울특별시 광진구 광나루로56길 85, 10층 (구의동, 테크노마트)",더스크린강변11,8관,서울,2D
,서울특별시 광진구 구의동 546-4 테크노마트10층,"서울특별시 광진구 광나루로56길 85, 10층 (구의동, 테크노마트)",더스크린강변11,9관,서울,2D
,서울특별시 광진구 구의동 546-4 테크노마트10층,"서울특별시 광진구 광나루로56길 85, 10층 (구의동, 테크노마트)",더스크린강변11,10관,서울,2D
,서울특별시 광진구 구의동 546-4 테크노마트10층,"서울특별시 광진구 광나루로56길 85, 10층 (구의동, 테크노마트)",더스크린강변11 STAR,2관,서울,2D
,서울특별시 광진구 구의동 546-4 테크노마트10층,"서울특별시 광진구 광나루로56길 85, 10층 (구의동, 테크노마트)",더스크린강변11 STAR,3관,서울,2D
,서울특별시 광진구 구의동 546-4 테크노마트10층,"서울특별시 광진구 광나루로56길 85, 10층 (구의동, 테크노마트)",더스크린강변11 4DX,1관,서울,2D
,서울특별시 강남구 논현동 4-15,서울특별시 강남구 도산대로 128 (논현동),더스크린,강남2관,서울,2D
3446-0105,서울특별시 강남구 신사동 603-2,서울특별시 강남구 논현로 848 (신사동),더스크린압구정,IMAX관,서울,IMAX
3446-0105,서울특별시 강남구 신사동 603-2,서울특별시 강남구 논현로 848 (신사동),더스크린압구정,2관,서울,2D
3446-0105,서울특별시 강남구 신사동 603-2,서울특별시 강남구 논현로 848 (신사동),더스크린압구정,3관,서울,2D
